{
"type": "FeatureCollection",
"name": "education",
"crs": { "type": "name", "properties": { "name": "urn:ogc:def:crs:OGC:1.3:CRS84" } },
"features": [
{ "type": "Feature", "properties": { "fid": 1.0, "osm_id": 1359366165.0, "osm_type": "nodes", "amenity": "school", "name": "SMP 6 Yogyakarta", "layer": "Education1 UTM", "path": "D:\\geomapid\\Kebutuhan Final Project\\SHP\\UTM\\Education1 UTM.shp" }, "geometry": { "type": "Point", "coordinates": [ 110.3669962, -7.7782549 ] } },
{ "type": "Feature", "properties": { "fid": 2.0, "osm_id": 4799168325.0, "osm_type": "nodes", "amenity": "school", "name": "SMA Bopkri 2", "layer": "Education1 UTM", "path": "D:\\geomapid\\Kebutuhan Final Project\\SHP\\UTM\\Education1 UTM.shp" }, "geometry": { "type": "Point", "coordinates": [ 110.3771737, -7.7827855 ] } },
{ "type": "Feature", "properties": { "fid": 3.0, "osm_id": 4799168421.0, "osm_type": "nodes", "amenity": "school", "name": "TK-SD Kanisius Wirobrajan", "layer": "Education1 UTM", "path": "D:\\geomapid\\Kebutuhan Final Project\\SHP\\UTM\\Education1 UTM.shp" }, "geometry": { "type": "Point", "coordinates": [ 110.3520864, -7.8004993 ] } },
{ "type": "Feature", "properties": { "fid": 4.0, "osm_id": 2295350796.0, "osm_type": "nodes", "amenity": "school", "name": "Muhammadiyah Jogokariyan Elementary", "layer": "Education1 UTM", "path": "D:\\geomapid\\Kebutuhan Final Project\\SHP\\UTM\\Education1 UTM.shp" }, "geometry": { "type": "Point", "coordinates": [ 110.3662397, -7.8234357 ] } },
{ "type": "Feature", "properties": { "fid": 5.0, "osm_id": 13018336645.0, "osm_type": "nodes", "amenity": "school", "name": "SD Ngeri Kotagede III", "layer": "Education1 UTM", "path": "D:\\geomapid\\Kebutuhan Final Project\\SHP\\UTM\\Education1 UTM.shp" }, "geometry": { "type": "Point", "coordinates": [ 110.3862857, -7.8208667 ] } },
{ "type": "Feature", "properties": { "fid": 6.0, "osm_id": 1351062359.0, "osm_type": "nodes", "amenity": "school", "name": "BLPT", "layer": "Education1 UTM", "path": "D:\\geomapid\\Kebutuhan Final Project\\SHP\\UTM\\Education1 UTM.shp" }, "geometry": { "type": "Point", "coordinates": [ 110.3541384, -7.7811119 ] } },
{ "type": "Feature", "properties": { "fid": 7.0, "osm_id": 4799168321.0, "osm_type": "nodes", "amenity": "school", "name": "SMP Negeri 7", "layer": "Education1 UTM", "path": "D:\\geomapid\\Kebutuhan Final Project\\SHP\\UTM\\Education1 UTM.shp" }, "geometry": { "type": "Point", "coordinates": [ 110.3506801, -7.7913761 ] } },
{ "type": "Feature", "properties": { "fid": 8.0, "osm_id": 3229499839.0, "osm_type": "nodes", "amenity": "school", "name": "SD Muhammadiyah 10", "layer": "Education1 UTM", "path": "D:\\geomapid\\Kebutuhan Final Project\\SHP\\UTM\\Education1 UTM.shp" }, "geometry": { "type": "Point", "coordinates": [ 110.3786041, -7.7799717 ] } },
{ "type": "Feature", "properties": { "fid": 9.0, "osm_id": 3315788117.0, "osm_type": "nodes", "amenity": "school", "name": "SD Muhammadiyah Karangwaru", "layer": "Education1 UTM", "path": "D:\\geomapid\\Kebutuhan Final Project\\SHP\\UTM\\Education1 UTM.shp" }, "geometry": { "type": "Point", "coordinates": [ 110.3621669, -7.7708746 ] } },
{ "type": "Feature", "properties": { "fid": 10.0, "osm_id": 1360407136.0, "osm_type": "nodes", "amenity": "school", "name": "SDIT Luqman Al-Hakim", "layer": "Education1 UTM", "path": "D:\\geomapid\\Kebutuhan Final Project\\SHP\\UTM\\Education1 UTM.shp" }, "geometry": { "type": "Point", "coordinates": [ 110.3908466, -7.7968209 ] } },
{ "type": "Feature", "properties": { "fid": 11.0, "osm_id": 7690360879.0, "osm_type": "nodes", "amenity": "school", "name": "Aviaterra Aviation Training", "layer": "Education1 UTM", "path": "D:\\geomapid\\Kebutuhan Final Project\\SHP\\UTM\\Education1 UTM.shp" }, "geometry": { "type": "Point", "coordinates": [ 110.3797011, -7.7922649 ] } },
{ "type": "Feature", "properties": { "fid": 12.0, "osm_id": 9191255911.0, "osm_type": "nodes", "amenity": "school", "name": "SD Kanisius Kotabaru 1", "layer": "Education1 UTM", "path": "D:\\geomapid\\Kebutuhan Final Project\\SHP\\UTM\\Education1 UTM.shp" }, "geometry": { "type": "Point", "coordinates": [ 110.3705311, -7.789716 ] } },
{ "type": "Feature", "properties": { "fid": 13.0, "osm_id": 4799168221.0, "osm_type": "nodes", "amenity": "school", "name": "TK Buyung", "layer": "Education1 UTM", "path": "D:\\geomapid\\Kebutuhan Final Project\\SHP\\UTM\\Education1 UTM.shp" }, "geometry": { "type": "Point", "coordinates": [ 110.3526404, -7.7921516 ] } },
{ "type": "Feature", "properties": { "fid": 14.0, "osm_id": 11202312637.0, "osm_type": "nodes", "amenity": "school", "name": "Best School Yogyakarta", "layer": "Education1 UTM", "path": "D:\\geomapid\\Kebutuhan Final Project\\SHP\\UTM\\Education1 UTM.shp" }, "geometry": { "type": "Point", "coordinates": [ 110.4001576, -7.8063049 ] } },
{ "type": "Feature", "properties": { "fid": 15.0, "osm_id": 4824441424.0, "osm_type": "nodes", "amenity": "school", "name": "Smp kalam kudus", "layer": "Education1 UTM", "path": "D:\\geomapid\\Kebutuhan Final Project\\SHP\\UTM\\Education1 UTM.shp" }, "geometry": { "type": "Point", "coordinates": [ 110.3548258, -7.7696366 ] } },
{ "type": "Feature", "properties": { "fid": 16.0, "osm_id": 2796609791.0, "osm_type": "nodes", "amenity": "school", "name": "Pondok Pesantren Nurul Ummah Kotagede", "layer": "Education1 UTM", "path": "D:\\geomapid\\Kebutuhan Final Project\\SHP\\UTM\\Education1 UTM.shp" }, "geometry": { "type": "Point", "coordinates": [ 110.3958748, -7.8256924 ] } },
{ "type": "Feature", "properties": { "fid": 17.0, "osm_id": 1360407160.0, "osm_type": "nodes", "amenity": "university", "name": "F. Hukum Univ. Janabadra'", "layer": "Education1 UTM", "path": "D:\\geomapid\\Kebutuhan Final Project\\SHP\\UTM\\Education1 UTM.shp" }, "geometry": { "type": "Point", "coordinates": [ 110.3914903, -7.7963009 ] } },
{ "type": "Feature", "properties": { "fid": 18.0, "osm_id": 3585153779.0, "osm_type": "nodes", "amenity": "school", "name": "SD Negeri Minggiran", "layer": "Education1 UTM", "path": "D:\\geomapid\\Kebutuhan Final Project\\SHP\\UTM\\Education1 UTM.shp" }, "geometry": { "type": "Point", "coordinates": [ 110.3617452, -7.8192476 ] } },
{ "type": "Feature", "properties": { "fid": 19.0, "osm_id": 3630343677.0, "osm_type": "nodes", "amenity": "school", "name": "SD Kanisius Kumendaman", "layer": "Education1 UTM", "path": "D:\\geomapid\\Kebutuhan Final Project\\SHP\\UTM\\Education1 UTM.shp" }, "geometry": { "type": "Point", "coordinates": [ 110.3609135, -7.8139952 ] } },
{ "type": "Feature", "properties": { "fid": 20.0, "osm_id": 3256671759.0, "osm_type": "nodes", "amenity": "college", "name": "Akademi Pariwisata Buana Pariwisata", "layer": "Education1 UTM", "path": "D:\\geomapid\\Kebutuhan Final Project\\SHP\\UTM\\Education1 UTM.shp" }, "geometry": { "type": "Point", "coordinates": [ 110.3651748, -7.8144481 ] } },
{ "type": "Feature", "properties": { "fid": 21.0, "osm_id": 3630609634.0, "osm_type": "nodes", "amenity": "school", "name": "SD Suryowijayan", "layer": "Education1 UTM", "path": "D:\\geomapid\\Kebutuhan Final Project\\SHP\\UTM\\Education1 UTM.shp" }, "geometry": { "type": "Point", "coordinates": [ 110.3532201, -7.8101272 ] } },
{ "type": "Feature", "properties": { "fid": 22.0, "osm_id": 2295352323.0, "osm_type": "nodes", "amenity": "school", "name": "Muhammadiyah 9 Junior High School", "layer": "Education1 UTM", "path": "D:\\geomapid\\Kebutuhan Final Project\\SHP\\UTM\\Education1 UTM.shp" }, "geometry": { "type": "Point", "coordinates": [ 110.374189, -7.8240966 ] } },
{ "type": "Feature", "properties": { "fid": 23.0, "osm_id": 10254071409.0, "osm_type": "nodes", "amenity": "school", "name": "SMK Berbudi", "layer": "Education1 UTM", "path": "D:\\geomapid\\Kebutuhan Final Project\\SHP\\UTM\\Education1 UTM.shp" }, "geometry": { "type": "Point", "coordinates": [ 110.3898902, -7.8314581 ] } },
{ "type": "Feature", "properties": { "fid": 24.0, "osm_id": 2564065096.0, "osm_type": "nodes", "amenity": "school", "name": "TK Pedagogia", "layer": "Education1 UTM", "path": "D:\\geomapid\\Kebutuhan Final Project\\SHP\\UTM\\Education1 UTM.shp" }, "geometry": { "type": "Point", "coordinates": [ 110.3553115, -7.8170713 ] } },
{ "type": "Feature", "properties": { "fid": 25.0, "osm_id": 3585153781.0, "osm_type": "nodes", "amenity": "university", "name": "UPBJJ-UT Yogyakarta", "layer": "Education1 UTM", "path": "D:\\geomapid\\Kebutuhan Final Project\\SHP\\UTM\\Education1 UTM.shp" }, "geometry": { "type": "Point", "coordinates": [ 110.3564265, -7.8182907 ] } },
{ "type": "Feature", "properties": { "fid": 26.0, "osm_id": 3585123761.0, "osm_type": "nodes", "amenity": "school", "name": "SD Negeri Suryodiningratan 2", "layer": "Education1 UTM", "path": "D:\\geomapid\\Kebutuhan Final Project\\SHP\\UTM\\Education1 UTM.shp" }, "geometry": { "type": "Point", "coordinates": [ 110.3583363, -7.8161615 ] } },
{ "type": "Feature", "properties": { "fid": 27.0, "osm_id": 4697613089.0, "osm_type": "nodes", "amenity": "school", "name": null, "layer": "Education1 UTM", "path": "D:\\geomapid\\Kebutuhan Final Project\\SHP\\UTM\\Education1 UTM.shp" }, "geometry": { "type": "Point", "coordinates": [ 110.3782507, -7.805275 ] } },
{ "type": "Feature", "properties": { "fid": 28.0, "osm_id": 3630420098.0, "osm_type": "nodes", "amenity": "school", "name": "SD Kraton (Keputran III)", "layer": "Education1 UTM", "path": "D:\\geomapid\\Kebutuhan Final Project\\SHP\\UTM\\Education1 UTM.shp" }, "geometry": { "type": "Point", "coordinates": [ 110.3598259, -7.8057905 ] } }
]
}
