{
"type": "FeatureCollection",
"name": "healthcare",
"crs": { "type": "name", "properties": { "name": "urn:ogc:def:crs:OGC:1.3:CRS84" } },
"features": [
{ "type": "Feature", "properties": { "fid": 1.0, "osm_id": 12846795692.0, "osm_type": "nodes", "amenity": null, "name": null, "layer": "healthcare utm", "path": "D:\\geomapid\\Kebutuhan Final Project\\SHP\\UTM\\healthcare utm.shp" }, "geometry": { "type": "Point", "coordinates": [ 110.3769516, -7.7856374 ] } },
{ "type": "Feature", "properties": { "fid": 2.0, "osm_id": 7331641864.0, "osm_type": "nodes", "amenity": null, "name": null, "layer": "healthcare utm", "path": "D:\\geomapid\\Kebutuhan Final Project\\SHP\\UTM\\healthcare utm.shp" }, "geometry": { "type": "Point", "coordinates": [ 110.3908845, -7.7833994 ] } },
{ "type": "Feature", "properties": { "fid": 3.0, "osm_id": 2631261031.0, "osm_type": "nodes", "amenity": null, "name": null, "layer": "healthcare utm", "path": "D:\\geomapid\\Kebutuhan Final Project\\SHP\\UTM\\healthcare utm.shp" }, "geometry": { "type": "Point", "coordinates": [ 110.3570675, -7.7851411 ] } },
{ "type": "Feature", "properties": { "fid": 4.0, "osm_id": 13849114497.0, "osm_type": "nodes", "amenity": null, "name": null, "layer": "healthcare utm", "path": "D:\\geomapid\\Kebutuhan Final Project\\SHP\\UTM\\healthcare utm.shp" }, "geometry": { "type": "Point", "coordinates": [ 110.3595422, -7.7715889 ] } }
]
}
