{
"type": "FeatureCollection",
"name": "Kota Yogyakarta",
"crs": { "type": "name", "properties": { "name": "urn:ogc:def:crs:OGC:1.3:CRS84" } },
"features": [
{ "type": "Feature", "properties": { "namobj": "Kota Yogyakarta", "fcode": "BA03030040", "remark": "Data Peta Dasar dari PERDA DIY Nomor 10 Tahun 2023 tentang RTRW DIY Tahun 2023-2043", "metadata": "PERDA RTRW DIY", "srs_id": "SRGI2013 UTM49S", "kdbbps": "3471", "kdcbps": null, "kdcpum": null, "kdebps": null, "kdepum": null, "kdpbps": "34", "kdpkab": null, "kdppum": null, "luaswh": 0.0, "tipadm": 0, "wadmkc": null, "wadmkd": null, "wadmkk": "Yogyakarta", "wadmpr": "Daerah Istimewa Yogyakarta", "wiadkc": null, "wiadkk": null, "wiadpr": null, "wiadkd": 0, "st_area_sh": 32796678.665, "st_length_": 38586.15869560001 }, "geometry": { "type": "MultiPolygon", "coordinates": [ [ [ [ 110.35266198361326, -7.766615357640618, 0.0 ], [ 110.353126455371921, -7.766843785885816, 0.0 ], [ 110.353324424549513, -7.766978939556776, 0.0 ], [ 110.353559617691118, -7.767180622172647, 0.0 ], [ 110.353653333814748, -7.767260988370959, 0.0 ], [ 110.353739463414158, -7.7673108085794, 0.0 ], [ 110.353962121804997, -7.767439601927934, 0.0 ], [ 110.354329508966302, -7.767728945746691, 0.0 ], [ 110.354755908831393, -7.768025901694615, 0.0 ], [ 110.355306042063091, -7.768438976015079, 0.0 ], [ 110.355477079303171, -7.768568616550084, 0.0 ], [ 110.355604900759801, -7.768665500696206, 0.0 ], [ 110.35639488284481, -7.769268933335422, 0.0 ], [ 110.357602453483622, -7.770225527279067, 0.0 ], [ 110.358600880654649, -7.770940265649041, 0.0 ], [ 110.358960779599201, -7.771252917409297, 0.0 ], [ 110.359293871566791, -7.771265107999712, 0.0 ], [ 110.359411120472018, -7.771269791092037, 0.0 ], [ 110.359787897683688, -7.771283125346565, 0.0 ], [ 110.36063627079109, -7.77131940399553, 0.0 ], [ 110.360681756183155, -7.771120930552783, 0.0 ], [ 110.360774896716038, -7.770576684620481, 0.0 ], [ 110.360893817918907, -7.77054290277376, 0.0 ], [ 110.36107322081979, -7.770488653229354, 0.0 ], [ 110.36129226847676, -7.770499230703237, 0.0 ], [ 110.361354187081091, -7.770501314613832, 0.0 ], [ 110.361418295805777, -7.769917608031942, 0.0 ], [ 110.361468465059019, -7.769445773885264, 0.0 ], [ 110.361513515493797, -7.769454961766067, 0.0 ], [ 110.361864119048562, -7.769491316136209, 0.0 ], [ 110.361890034065127, -7.769425437011711, 0.0 ], [ 110.36192735827531, -7.76928532190453, 0.0 ], [ 110.361955440642475, -7.769164831656202, 0.0 ], [ 110.362002169781746, -7.769016553879663, 0.0 ], [ 110.362044306148078, -7.768831183344041, 0.0 ], [ 110.362075687667627, -7.768708915241869, 0.0 ], [ 110.362115319451391, -7.768535353845686, 0.0 ], [ 110.36250389389923, -7.768578250877145, 0.0 ], [ 110.36256786994791, -7.768540057082992, 0.0 ], [ 110.362650676215793, -7.768499130047789, 0.0 ], [ 110.362672567105463, -7.768598114585898, 0.0 ], [ 110.362697375242874, -7.768660554013326, 0.0 ], [ 110.362801057364265, -7.768715184582123, 0.0 ], [ 110.362904800746037, -7.768753256333945, 0.0 ], [ 110.363025678334594, -7.768758015273428, 0.0 ], [ 110.36312276110452, -7.768760870701628, 0.0 ], [ 110.363296936387044, -7.768674258834214, 0.0 ], [ 110.363532027224863, -7.768541959910266, 0.0 ], [ 110.363759505460919, -7.768463914697504, 0.0 ], [ 110.363795615446406, -7.768438352999007, 0.0 ], [ 110.36379281588718, -7.768363023819458, 0.0 ], [ 110.363856585751265, -7.768324953428407, 0.0 ], [ 110.363974608034425, -7.768267845570533, 0.0 ], [ 110.364008871628229, -7.768280219007599, 0.0 ], [ 110.364061220219924, -7.768355409779566, 0.0 ], [ 110.364075497049839, -7.768420130841401, 0.0 ], [ 110.36405931724606, -7.768474383641866, 0.0 ], [ 110.364066931158646, -7.768521021691574, 0.0 ], [ 110.364213505830733, -7.768562899186954, 0.0 ], [ 110.364267758381104, -7.76862762035399, 0.0 ], [ 110.364285840698471, -7.768769436800161, 0.0 ], [ 110.364271565439523, -7.768853193096561, 0.0 ], [ 110.364266806127347, -7.768943612691472, 0.0 ], [ 110.364270612703095, -7.769084477036789, 0.0 ], [ 110.36454662970948, -7.76907400681426, 0.0 ], [ 110.364676072696483, -7.769113981686783, 0.0 ], [ 110.364780768156663, -7.769164427236585, 0.0 ], [ 110.364955897760368, -7.769283399803063, 0.0 ], [ 110.365138639773576, -7.769404275916425, 0.0 ], [ 110.365248095750019, -7.769459479872213, 0.0 ], [ 110.365437500607413, -7.769514682907652, 0.0 ], [ 110.365480331175476, -7.769509924918967, 0.0 ], [ 110.365527920305169, -7.769478516266825, 0.0 ], [ 110.365586930588378, -7.769368109244056, 0.0 ], [ 110.365802984760862, -7.769412843289436, 0.0 ], [ 110.3662113011424, -7.769538479557795, 0.0 ], [ 110.366212252818286, -7.769559416804494, 0.0 ], [ 110.366170375067711, -7.76970408977038, 0.0 ], [ 110.366106604854949, -7.769868746910302, 0.0 ], [ 110.366060919099823, -7.769870651488071, 0.0 ], [ 110.36593718729236, -7.769844001753031, 0.0 ], [ 110.365939090957369, -7.769810687813107, 0.0 ], [ 110.36569733788896, -7.769747871354811, 0.0 ], [ 110.365662121587206, -7.769745967245009, 0.0 ], [ 110.36564689309634, -7.769770712749657, 0.0 ], [ 110.365453680599487, -7.769707896264021, 0.0 ], [ 110.365286167288659, -7.769644125836283, 0.0 ], [ 110.365270938374707, -7.769643174153543, 0.0 ], [ 110.365247143825556, -7.769680294131, 0.0 ], [ 110.365190988086752, -7.769837339258144, 0.0 ], [ 110.365170049033068, -7.769853519532458, 0.0 ], [ 110.36513959234361, -7.769854471701432, 0.0 ], [ 110.365111989647545, -7.769855421801251, 0.0 ], [ 110.3650824845638, -7.769958216142972, 0.0 ], [ 110.3650034857679, -7.770141909281753, 0.0 ], [ 110.364978740671916, -7.770192353985538, 0.0 ], [ 110.364969222513338, -7.77022757138407, 0.0 ], [ 110.364993968770193, -7.770254220001774, 0.0 ], [ 110.365041556944433, -7.770256123665257, 0.0 ], [ 110.365072966726714, -7.770219005135143, 0.0 ], [ 110.365135785182787, -7.77002293579721, 0.0 ], [ 110.365186228784111, -7.770017225913523, 0.0 ], [ 110.365290926027996, -7.770021986294137, 0.0 ], [ 110.365448921202145, -7.770003901408444, 0.0 ], [ 110.365582171276671, -7.769986769050361, 0.0 ], [ 110.365641181968741, -7.769998189785145, 0.0 ], [ 110.365814407362762, -7.770058153383511, 0.0 ], [ 110.366105652938444, -7.770153331985723, 0.0 ], [ 110.366313797666081, -7.77021136751211, 0.0 ], [ 110.366490173789046, -7.770264690100749, 0.0 ], [ 110.366585530719163, -7.770313230888546, 0.0 ], [ 110.366637641028021, -7.770356061226083, 0.0 ], [ 110.366657629288241, -7.77038247291654, 0.0 ], [ 110.366656914670131, -7.770446005658338, 0.0 ], [ 110.366637640744074, -7.770520244572627, 0.0 ], [ 110.366596951970166, -7.770742961523684, 0.0 ], [ 110.366576964197165, -7.770813631973932, 0.0 ], [ 110.366519899790589, -7.771085794044605, 0.0 ], [ 110.366512284254881, -7.771129576429328, 0.0 ], [ 110.366513791636734, -7.771268637394297, 0.0 ], [ 110.366520509675979, -7.771292393556774, 0.0 ], [ 110.366560747066288, -7.771319456848503, 0.0 ], [ 110.366600007647591, -7.771361099408342, 0.0 ], [ 110.366614285043426, -7.771401547845077, 0.0 ], [ 110.366600007517562, -7.771462226525236, 0.0 ], [ 110.366527433648073, -7.771659720633648, 0.0 ], [ 110.36653219301003, -7.771694223091422, 0.0 ], [ 110.366653544665837, -7.771722775858475, 0.0 ], [ 110.367398316800717, -7.771904804284987, 0.0 ], [ 110.367604140152395, -7.771948824911518, 0.0 ], [ 110.367619606498408, -7.771888147958738, 0.0 ], [ 110.367660815790018, -7.771613697203922, 0.0 ], [ 110.367718523147943, -7.771283563012964, 0.0 ], [ 110.367756107610475, -7.770972617923017, 0.0 ], [ 110.367757629166093, -7.77095457608008, 0.0 ], [ 110.367761924730132, -7.770919077668233, 0.0 ], [ 110.36784803463074, -7.770328412101708, 0.0 ], [ 110.367868261235628, -7.770302238486283, 0.0 ], [ 110.368110966353456, -7.770315326011022, 0.0 ], [ 110.368517853326566, -7.770343878587488, 0.0 ], [ 110.368555924227792, -7.770356965572334, 0.0 ], [ 110.368515473982868, -7.770654399455086, 0.0 ], [ 110.368444089691238, -7.771110065178331, 0.0 ], [ 110.368413156739322, -7.771333733946202, 0.0 ], [ 110.368402449532624, -7.77138132339625, 0.0 ], [ 110.368402450081447, -7.771430103727308, 0.0 ], [ 110.368431001634661, -7.771451517081382, 0.0 ], [ 110.368627308956818, -7.771528850705026, 0.0 ], [ 110.368668948749786, -7.771546696202727, 0.0 ], [ 110.368672519202249, -7.771576439150277, 0.0 ], [ 110.368670137582811, -7.771602613092553, 0.0 ], [ 110.368690364718091, -7.771622838193427, 0.0 ], [ 110.368892619170168, -7.771773934453523, 0.0 ], [ 110.368923551927736, -7.771813196433691, 0.0 ], [ 110.368930690134434, -7.771842938349178, 0.0 ], [ 110.368912843832291, -7.771889339533595, 0.0 ], [ 110.368898566524749, -7.771917892761082, 0.0 ], [ 110.368925930710446, -7.771929789759817, 0.0 ], [ 110.369024679283413, -7.771963101295024, 0.0 ], [ 110.36911271876518, -7.772010691811545, 0.0 ], [ 110.369146287867849, -7.772035404999086, 0.0 ], [ 110.369151979593298, -7.772251016564926, 0.0 ], [ 110.369161496929109, -7.772377127820961, 0.0 ], [ 110.369166257290928, -7.772465168335382, 0.0 ], [ 110.36919956764352, -7.772636488972679, 0.0 ], [ 110.369206708091099, -7.772736426450155, 0.0 ], [ 110.369217414153511, -7.772883954696805, 0.0 ], [ 110.369218605057796, -7.772917266025847, 0.0 ], [ 110.369240019519509, -7.772969612996801, 0.0 ], [ 110.369280470181238, -7.773090966325352, 0.0 ], [ 110.369307834969149, -7.773262288076627, 0.0 ], [ 110.369333375647045, -7.773423516381449, 0.0 ], [ 110.369345906111874, -7.773502614667302, 0.0 ], [ 110.369356612640928, -7.773663226677745, 0.0 ], [ 110.369324489913026, -7.774027284860537, 0.0 ], [ 110.369320921446786, -7.774177191571794, 0.0 ], [ 110.369318425076997, -7.774214629234103, 0.0 ], [ 110.369313782965762, -7.774284266145598, 0.0 ], [ 110.369337576465313, -7.774428224718614, 0.0 ], [ 110.369354234034049, -7.774472244016622, 0.0 ], [ 110.369466068404975, -7.774631668425708, 0.0 ], [ 110.369517226380637, -7.774703051592017, 0.0 ], [ 110.369568385874643, -7.774736363844622, 0.0 ], [ 110.36981109062782, -7.774879131397734, 0.0 ], [ 110.36988961279728, -7.774925530906159, 0.0 ], [ 110.370003826499115, -7.775063539880399, 0.0 ], [ 110.37004546744123, -7.775158717439162, 0.0 ], [ 110.370056173325125, -7.775237240449017, 0.0 ], [ 110.370054984991725, -7.775365731862974, 0.0 ], [ 110.370063313338349, -7.775372869060906, 0.0 ], [ 110.370073126226501, -7.775373359392885, 0.0 ], [ 110.370134696859992, -7.775376438338766, 0.0 ], [ 110.370385730343713, -7.77535978231911, 0.0 ], [ 110.370735510860541, -7.775357402798037, 0.0 ], [ 110.370954421854975, -7.775369300412309, 0.0 ], [ 110.371229248313696, -7.775412131827597, 0.0 ], [ 110.371747971276733, -7.775469239046727, 0.0 ], [ 110.372257177000989, -7.775540621963808, 0.0 ], [ 110.372446344049848, -7.775566795987899, 0.0 ], [ 110.372573212671114, -7.775603595440209, 0.0 ], [ 110.372658114365123, -7.775603677479942, 0.0 ], [ 110.37271154499291, -7.775587014801739, 0.0 ], [ 110.3728984396611, -7.775528724602844, 0.0 ], [ 110.372993125014418, -7.775500116318415, 0.0 ], [ 110.373394559115383, -7.775378818635949, 0.0 ], [ 110.373991804304708, -7.775201548603845, 0.0 ], [ 110.374648534680347, -7.775001674693457, 0.0 ], [ 110.37478641902986, -7.774956118435594, 0.0 ], [ 110.374918605204968, -7.774912444174197, 0.0 ], [ 110.374991177652575, -7.774894599134913, 0.0 ], [ 110.375394496144224, -7.774691153466799, 0.0 ], [ 110.375418289634084, -7.774689964659133, 0.0 ], [ 110.37544327369433, -7.775059971646494, 0.0 ], [ 110.375458741302737, -7.775284831000755, 0.0 ], [ 110.375499192160277, -7.775663165064796, 0.0 ], [ 110.375538411017018, -7.77614485329492, 0.0 ], [ 110.375541080526943, -7.776177647625378, 0.0 ], [ 110.375576772127374, -7.776281749866526, 0.0 ], [ 110.375677898536864, -7.776513746976909, 0.0 ], [ 110.376329276492839, -7.776608925725614, 0.0 ], [ 110.377224548823548, -7.776701130041151, 0.0 ], [ 110.377456546985997, -7.776843896788284, 0.0 ], [ 110.377977053599878, -7.777257328618624, 0.0 ], [ 110.378613559269837, -7.777730247700172, 0.0 ], [ 110.378839607434585, -7.777908706199653, 0.0 ], [ 110.378946683899599, -7.777994961711674, 0.0 ], [ 110.379309551420576, -7.778081216865153, 0.0 ], [ 110.379535601051927, -7.778128806393176, 0.0 ], [ 110.379609957429352, -7.778334035239456, 0.0 ], [ 110.379746777575022, -7.779047872884823, 0.0 ], [ 110.379928210712677, -7.779428588174031, 0.0 ], [ 110.380100722693712, -7.779871762410761, 0.0 ], [ 110.380136413929364, -7.779928274284678, 0.0 ], [ 110.380499282240336, -7.780121604884231, 0.0 ], [ 110.380725330484225, -7.780249501111582, 0.0 ], [ 110.381329119204679, -7.780347654173217, 0.0 ], [ 110.381834753302186, -7.780413090060991, 0.0 ], [ 110.381932906116404, -7.780169195204646, 0.0 ], [ 110.382346338916051, -7.780198937915418, 0.0 ], [ 110.382625925109934, -7.780240577958499, 0.0 ], [ 110.383235662768513, -7.780264373275993, 0.0 ], [ 110.383693708953885, -7.780294117119937, 0.0 ], [ 110.384356983149914, -7.78031791080297, 0.0 ], [ 110.384850721870478, -7.780288168249831, 0.0 ], [ 110.385374202445135, -7.780264373772287, 0.0 ], [ 110.385867939932339, -7.780243552154238, 0.0 ], [ 110.386986287746865, -7.780252475927741, 0.0 ], [ 110.38739377048995, -7.780249501522306, 0.0 ], [ 110.388092735267747, -7.780249501507057, 0.0 ], [ 110.388589450015488, -7.780297092182514, 0.0 ], [ 110.389047495236824, -7.780314936808583, 0.0 ], [ 110.389883281617116, -7.780347654478623, 0.0 ], [ 110.390501941577114, -7.78037739850845, 0.0 ], [ 110.390748810485192, -7.780389295557919, 0.0 ], [ 110.390861833802958, -7.78076108607645, 0.0 ], [ 110.391120601592803, -7.781590923363642, 0.0 ], [ 110.391963326112247, -7.784036017672842, 0.0 ], [ 110.392310561649765, -7.784907797905892, 0.0 ], [ 110.392692035927297, -7.786034766331829, 0.0 ], [ 110.392837777811621, -7.786448196567827, 0.0 ], [ 110.393602180310424, -7.78681106502714, 0.0 ], [ 110.394964422278591, -7.787441622445675, 0.0 ], [ 110.395101241523406, -7.787501108688198, 0.0 ], [ 110.395083395549833, -7.787649825403292, 0.0 ], [ 110.394982267956507, -7.788036486362607, 0.0 ], [ 110.394830576861764, -7.788548070106432, 0.0 ], [ 110.394833551246307, -7.788675966528326, 0.0 ], [ 110.394836420235023, -7.788675726405088, 0.0 ], [ 110.396323689333386, -7.7885510457535, 0.0 ], [ 110.396865016043677, -7.788503457288948, 0.0 ], [ 110.396954246251852, -7.788496317359348, 0.0 ], [ 110.39703633726586, -7.788491559700462, 0.0 ], [ 110.397124790106758, -7.788483868683057, 0.0 ], [ 110.397162327265264, -7.788586688651916, 0.0 ], [ 110.397304492103274, -7.789015858426812, 0.0 ], [ 110.397403133768307, -7.789487748087701, 0.0 ], [ 110.397438839039737, -7.78973905168316, 0.0 ], [ 110.397435135781336, -7.789871817605126, 0.0 ], [ 110.39739881390706, -7.790051231880453, 0.0 ], [ 110.397283346413005, -7.790223333651006, 0.0 ], [ 110.397039088675854, -7.790441633023079, 0.0 ], [ 110.396896728776412, -7.790536049142949, 0.0 ], [ 110.396504754805505, -7.790714030788967, 0.0 ], [ 110.39616720525315, -7.790858456991579, 0.0 ], [ 110.396077023579011, -7.790935565077675, 0.0 ], [ 110.396029210382764, -7.791004610074815, 0.0 ], [ 110.395986695022657, -7.791117679063658, 0.0 ], [ 110.395983815015867, -7.791191414695463, 0.0 ], [ 110.396001613843183, -7.791288833792255, 0.0 ], [ 110.396172153557302, -7.791535186520885, 0.0 ], [ 110.396229194128352, -7.791611063504083, 0.0 ], [ 110.396243934295967, -7.791649960592326, 0.0 ], [ 110.396258597959957, -7.791740998379199, 0.0 ], [ 110.39626385895474, -7.79181330652932, 0.0 ], [ 110.396242241263693, -7.791928358163607, 0.0 ], [ 110.39623146782219, -7.79196053452567, 0.0 ], [ 110.396173501776587, -7.792014033622534, 0.0 ], [ 110.395998594462867, -7.79210531678657, 0.0 ], [ 110.395963038348128, -7.792138382225371, 0.0 ], [ 110.395947425332494, -7.79219276477348, 0.0 ], [ 110.395933064019857, -7.792275534614726, 0.0 ], [ 110.395785799128234, -7.79243781995473, 0.0 ], [ 110.395772266539765, -7.792587132562672, 0.0 ], [ 110.395774651086327, -7.792731220774424, 0.0 ], [ 110.395817356038862, -7.792872591434305, 0.0 ], [ 110.395825094786332, -7.793022036586009, 0.0 ], [ 110.395868624228143, -7.793491689683842, 0.0 ], [ 110.395881410438093, -7.793602985041442, 0.0 ], [ 110.395936985637675, -7.793797750415271, 0.0 ], [ 110.396012962165187, -7.793953668793992, 0.0 ], [ 110.39602229608299, -7.794022280563655, 0.0 ], [ 110.396033324430718, -7.794068576731809, 0.0 ], [ 110.396015448366427, -7.794411538118071, 0.0 ], [ 110.396030005794117, -7.794578579481537, 0.0 ], [ 110.396052092508, -7.794652146279854, 0.0 ], [ 110.396173244952777, -7.794774806698444, 0.0 ], [ 110.39623363505531, -7.79483629130333, 0.0 ], [ 110.396265372905987, -7.794887553833406, 0.0 ], [ 110.396330419595955, -7.795055181826786, 0.0 ], [ 110.396405066826404, -7.795492173761978, 0.0 ], [ 110.396498685301921, -7.795985242838112, 0.0 ], [ 110.396508395249469, -7.796049741398944, 0.0 ], [ 110.396631089995864, -7.796256633311844, 0.0 ], [ 110.396673158010856, -7.796327657922003, 0.0 ], [ 110.39692162337721, -7.797048029776013, 0.0 ], [ 110.397050661782473, -7.797236592480473, 0.0 ], [ 110.397120214987822, -7.797338231534224, 0.0 ], [ 110.397238259966102, -7.797422496932861, 0.0 ], [ 110.397330842792357, -7.797488582381813, 0.0 ], [ 110.397348221498007, -7.797509147763077, 0.0 ], [ 110.397505140599804, -7.797694829351721, 0.0 ], [ 110.397635323928625, -7.797839717187745, 0.0 ], [ 110.397672940927634, -7.797880925262258, 0.0 ], [ 110.397682043403378, -7.79789089964258, 0.0 ], [ 110.397686505633843, -7.797898511158309, 0.0 ], [ 110.397719864669767, -7.797955436368045, 0.0 ], [ 110.397732308749553, -7.798004471583548, 0.0 ], [ 110.397750370615114, -7.79807564467056, 0.0 ], [ 110.397753154711822, -7.798086611360871, 0.0 ], [ 110.397756140486138, -7.798116370555823, 0.0 ], [ 110.39775635420628, -7.798118498280719, 0.0 ], [ 110.397775036276116, -7.798304571971189, 0.0 ], [ 110.397787205952383, -7.798339381477189, 0.0 ], [ 110.397790494736952, -7.798348788595664, 0.0 ], [ 110.397803202755284, -7.798385141970822, 0.0 ], [ 110.397844770068772, -7.798504049931613, 0.0 ], [ 110.397845215381523, -7.798505321409514, 0.0 ], [ 110.397852665169253, -7.798540822487065, 0.0 ], [ 110.397855318083487, -7.798553466866894, 0.0 ], [ 110.397850097935759, -7.798713074800576, 0.0 ], [ 110.397837706141587, -7.798841819502608, 0.0 ], [ 110.397845533067326, -7.798930071565414, 0.0 ], [ 110.397937320707555, -7.799152965327875, 0.0 ], [ 110.398073507237243, -7.799367385390836, 0.0 ], [ 110.398288753881459, -7.799652160686607, 0.0 ], [ 110.398388228132745, -7.799802249976032, 0.0 ], [ 110.398426965796844, -7.799873061676968, 0.0 ], [ 110.398495991750622, -7.800364553308563, 0.0 ], [ 110.398517205823666, -7.800532633428171, 0.0 ], [ 110.398532986753096, -7.800748629780841, 0.0 ], [ 110.398537671779863, -7.800965333071586, 0.0 ], [ 110.398522329031906, -7.801088210526563, 0.0 ], [ 110.398506414514713, -7.801168185988717, 0.0 ], [ 110.398502768644292, -7.801186501772031, 0.0 ], [ 110.398482169774226, -7.801242266640006, 0.0 ], [ 110.398458951423265, -7.801305123708564, 0.0 ], [ 110.398448553625968, -7.801326308062865, 0.0 ], [ 110.398406642238484, -7.801411699890646, 0.0 ], [ 110.398378156457085, -7.801502302718283, 0.0 ], [ 110.398377843044486, -7.801503293621876, 0.0 ], [ 110.398372303639349, -7.801521455657187, 0.0 ], [ 110.398355970649021, -7.801574998758055, 0.0 ], [ 110.398350341038565, -7.801593450109628, 0.0 ], [ 110.398338824040394, -7.801629221801384, 0.0 ], [ 110.398307136740016, -7.801672166568659, 0.0 ], [ 110.398292099487747, -7.801678971568002, 0.0 ], [ 110.398199054391057, -7.801721071097594, 0.0 ], [ 110.398112284166885, -7.801739356398374, 0.0 ], [ 110.398009807541683, -7.801749083425237, 0.0 ], [ 110.397911413532995, -7.80174904565844, 0.0 ], [ 110.397827829083298, -7.801738437969573, 0.0 ], [ 110.397755517616545, -7.801735865741887, 0.0 ], [ 110.397584245413, -7.801740146356291, 0.0 ], [ 110.397499535738888, -7.801741363541541, 0.0 ], [ 110.397409445003646, -7.801753372057845, 0.0 ], [ 110.397320446915927, -7.801778852154799, 0.0 ], [ 110.397254379840092, -7.801806732914832, 0.0 ], [ 110.397225136527652, -7.801821295568951, 0.0 ], [ 110.397066237681372, -7.802086680157927, 0.0 ], [ 110.397064821402978, -7.802236446895151, 0.0 ], [ 110.397073042700072, -7.802236699210061, 0.0 ], [ 110.397300855628401, -7.802243686397686, 0.0 ], [ 110.397516387867228, -7.802250296886067, 0.0 ], [ 110.397541394582234, -7.80225106333731, 0.0 ], [ 110.39757037726875, -7.802251951225372, 0.0 ], [ 110.397582531911127, -7.802252324908002, 0.0 ], [ 110.397713563905086, -7.802256344761619, 0.0 ], [ 110.398110805492593, -7.8022685275637, 0.0 ], [ 110.39954966394285, -7.802312656995995, 0.0 ], [ 110.401597902137667, -7.802386259010351, 0.0 ], [ 110.402258359561174, -7.802432656169765, 0.0 ], [ 110.402079809496811, -7.810639334630659, 0.0 ], [ 110.401960009644384, -7.816582582252279, 0.0 ], [ 110.401938044965689, -7.817068597113668, 0.0 ], [ 110.401909405494294, -7.817309419100303, 0.0 ], [ 110.40183756050051, -7.817755665012369, 0.0 ], [ 110.401716267072132, -7.818116787444802, 0.0 ], [ 110.401566319255451, -7.818598300923848, 0.0 ], [ 110.40134325975734, -7.819115090788784, 0.0 ], [ 110.401295283330526, -7.81923627214952, 0.0 ], [ 110.401410400597513, -7.819280013996591, 0.0 ], [ 110.401536625596648, -7.819317659746293, 0.0 ], [ 110.401649591025503, -7.819348366223741, 0.0 ], [ 110.401843927784654, -7.819388441139844, 0.0 ], [ 110.401893119798203, -7.819393756105305, 0.0 ], [ 110.402165473526395, -7.819459346502813, 0.0 ], [ 110.402283446218618, -7.819481419069417, 0.0 ], [ 110.402350562390097, -7.819498277455172, 0.0 ], [ 110.402431349182237, -7.819527085737144, 0.0 ], [ 110.402591449478606, -7.819580483321142, 0.0 ], [ 110.402790762553153, -7.819632497225721, 0.0 ], [ 110.402909279164717, -7.819662490331158, 0.0 ], [ 110.402956064806006, -7.819667903983533, 0.0 ], [ 110.403146752554036, -7.819673829503797, 0.0 ], [ 110.403316702182309, -7.819693404623721, 0.0 ], [ 110.403722728116719, -7.819681791652352, 0.0 ], [ 110.40366742138697, -7.819911879328306, 0.0 ], [ 110.403655800245829, -7.820079613492653, 0.0 ], [ 110.40362309051703, -7.820190972872041, 0.0 ], [ 110.403576486226029, -7.820313256354775, 0.0 ], [ 110.40355618579764, -7.820392924553268, 0.0 ], [ 110.403536749231876, -7.820480611597152, 0.0 ], [ 110.403443786733106, -7.820469513907422, 0.0 ], [ 110.403335056791974, -7.820450138400953, 0.0 ], [ 110.403218241532798, -7.82043860715691, 0.0 ], [ 110.403212134404782, -7.820474516839435, 0.0 ], [ 110.403165015144211, -7.820781587549184, 0.0 ], [ 110.403122238202741, -7.821051903061655, 0.0 ], [ 110.403192350996051, -7.821166686617743, 0.0 ], [ 110.403213232295556, -7.821312713996051, 0.0 ], [ 110.403486574976867, -7.821412967888263, 0.0 ], [ 110.403421803928552, -7.821533374119723, 0.0 ], [ 110.403400974244448, -7.821564790167399, 0.0 ], [ 110.403383401896008, -7.821695584517938, 0.0 ], [ 110.403343669379908, -7.821802177984105, 0.0 ], [ 110.403320636090527, -7.821871566093001, 0.0 ], [ 110.403318231844921, -7.822000940982978, 0.0 ], [ 110.403335709751886, -7.822066169501534, 0.0 ], [ 110.403347331171972, -7.822089223035071, 0.0 ], [ 110.403376837050146, -7.822150561046183, 0.0 ], [ 110.403411159679081, -7.822207071227709, 0.0 ], [ 110.403515773073892, -7.822374591536869, 0.0 ], [ 110.403486494254892, -7.82237875796775, 0.0 ], [ 110.403463019008342, -7.822384479320099, 0.0 ], [ 110.403340796831515, -7.822406544086768, 0.0 ], [ 110.402991524996423, -7.822458011933049, 0.0 ], [ 110.402557396917231, -7.822499122079862, 0.0 ], [ 110.401441084649392, -7.822455382912077, 0.0 ], [ 110.401420554785432, -7.822534014966899, 0.0 ], [ 110.40139588405286, -7.822651055004586, 0.0 ], [ 110.401908647980534, -7.822714670127672, 0.0 ], [ 110.402458764246063, -7.822742284441316, 0.0 ], [ 110.402460535651059, -7.822721888317888, 0.0 ], [ 110.403864332730052, -7.822648904348464, 0.0 ], [ 110.404824097806255, -7.822508946276961, 0.0 ], [ 110.404807758665569, -7.822760498923101, 0.0 ], [ 110.404778711162507, -7.822897036223043, 0.0 ], [ 110.404785328256636, -7.823057278711477, 0.0 ], [ 110.40481038025429, -7.823521452726975, 0.0 ], [ 110.404816102615911, -7.823658965278764, 0.0 ], [ 110.404801565599058, -7.823997509534476, 0.0 ], [ 110.404788567629595, -7.824164100282404, 0.0 ], [ 110.404850958124356, -7.82456029379289, 0.0 ], [ 110.404859005780281, -7.824708250443606, 0.0 ], [ 110.404876151643109, -7.824748178239325, 0.0 ], [ 110.404933349087045, -7.824847297944146, 0.0 ], [ 110.404920199146531, -7.825121055495786, 0.0 ], [ 110.404898472077534, -7.825311902988508, 0.0 ], [ 110.404896281530995, -7.825813373332238, 0.0 ], [ 110.404902003491969, -7.826212728678026, 0.0 ], [ 110.404839175871231, -7.826952610707562, 0.0 ], [ 110.404763552550833, -7.827324288857929, 0.0 ], [ 110.404711248450738, -7.827687156439231, 0.0 ], [ 110.404681349907236, -7.827771754286034, 0.0 ], [ 110.404704138622179, -7.828005861499801, 0.0 ], [ 110.404947899660598, -7.82801473864841, 0.0 ], [ 110.404887984457247, -7.828141259162803, 0.0 ], [ 110.404844189206415, -7.828242603512574, 0.0 ], [ 110.404817799953307, -7.828331013423435, 0.0 ], [ 110.404804805474654, -7.828624720222396, 0.0 ], [ 110.404799951970617, -7.829177608426184, 0.0 ], [ 110.404829071440375, -7.829511690710116, 0.0 ], [ 110.404909081753203, -7.830089175752107, 0.0 ], [ 110.405053452675872, -7.830333351710189, 0.0 ], [ 110.405105357093845, -7.830403277051208, 0.0 ], [ 110.404746123625131, -7.831076067864848, 0.0 ], [ 110.404220123748402, -7.831333355143266, 0.0 ], [ 110.403581237018315, -7.8318889105476, 0.0 ], [ 110.403628933305413, -7.831916337793646, 0.0 ], [ 110.403202094078708, -7.832677596924842, 0.0 ], [ 110.403610416265082, -7.832834480426706, 0.0 ], [ 110.403563900896543, -7.83309261931721, 0.0 ], [ 110.403467743483745, -7.833090647087848, 0.0 ], [ 110.403375316506811, -7.833076070271428, 0.0 ], [ 110.403126883209367, -7.833031525783607, 0.0 ], [ 110.402648171287183, -7.832895837976535, 0.0 ], [ 110.402468521420943, -7.832831505719088, 0.0 ], [ 110.402363022128227, -7.832895359643987, 0.0 ], [ 110.402218815577285, -7.832947435234448, 0.0 ], [ 110.402106875142067, -7.832961206915264, 0.0 ], [ 110.401909858167912, -7.833098543944876, 0.0 ], [ 110.401920192136771, -7.832881028206614, 0.0 ], [ 110.4019132804641, -7.832781898946483, 0.0 ], [ 110.401910243006895, -7.832698473038405, 0.0 ], [ 110.401891851482603, -7.832578033401019, 0.0 ], [ 110.401876627962693, -7.832448247382734, 0.0 ], [ 110.401873785247446, -7.83222895999462, 0.0 ], [ 110.401909078664218, -7.831953110405174, 0.0 ], [ 110.401980036802016, -7.831759087685237, 0.0 ], [ 110.40057326552764, -7.831361599028668, 0.0 ], [ 110.400473737355512, -7.832199957113033, 0.0 ], [ 110.400264566405639, -7.833004673100191, 0.0 ], [ 110.400050705670694, -7.833535268180607, 0.0 ], [ 110.397786129934943, -7.833333250205759, 0.0 ], [ 110.397863249692378, -7.832761102267388, 0.0 ], [ 110.397152198982951, -7.832672238715008, 0.0 ], [ 110.397184658963681, -7.832561226174045, 0.0 ], [ 110.396984146099101, -7.832449375732055, 0.0 ], [ 110.39699796814827, -7.832260342103758, 0.0 ], [ 110.39689127627922, -7.832227204570668, 0.0 ], [ 110.396930676507282, -7.831973949043161, 0.0 ], [ 110.397011333158801, -7.831615874097347, 0.0 ], [ 110.397116718657344, -7.831139381111501, 0.0 ], [ 110.397392644751221, -7.831220524250585, 0.0 ], [ 110.397663922170182, -7.831247550723456, 0.0 ], [ 110.397697135412045, -7.831138577968549, 0.0 ], [ 110.397802128486475, -7.830725007615658, 0.0 ], [ 110.397924125601378, -7.830442686623639, 0.0 ], [ 110.398175851424114, -7.83044327932839, 0.0 ], [ 110.398370616665702, -7.830444584782143, 0.0 ], [ 110.398525201527207, -7.830454065725901, 0.0 ], [ 110.398577344554596, -7.830338487072054, 0.0 ], [ 110.39877698367863, -7.830025043620181, 0.0 ], [ 110.398985169427476, -7.829679940650583, 0.0 ], [ 110.399028144370448, -7.829597014493014, 0.0 ], [ 110.399364489733316, -7.828835152455952, 0.0 ], [ 110.399401536412839, -7.828689360365928, 0.0 ], [ 110.399424877460447, -7.828535022799178, 0.0 ], [ 110.399441854991693, -7.828175296161101, 0.0 ], [ 110.39942767937643, -7.827998998729091, 0.0 ], [ 110.399398300651583, -7.827885137293196, 0.0 ], [ 110.39794730533896, -7.827553904220438, 0.0 ], [ 110.39769679518939, -7.827509489520251, 0.0 ], [ 110.396998628339375, -7.82746682201461, 0.0 ], [ 110.396468708542685, -7.827468448477246, 0.0 ], [ 110.396074299963786, -7.827468585000807, 0.0 ], [ 110.395479799599826, -7.827457490741649, 0.0 ], [ 110.39497820055557, -7.827419028962358, 0.0 ], [ 110.394614131291945, -7.82737753667997, 0.0 ], [ 110.394133299399641, -7.827287750841246, 0.0 ], [ 110.39407151995124, -7.827085216529092, 0.0 ], [ 110.393984165661962, -7.826763762502629, 0.0 ], [ 110.393937822026444, -7.826365302797153, 0.0 ], [ 110.393466015863055, -7.826297790246027, 0.0 ], [ 110.393304835361718, -7.826259919869485, 0.0 ], [ 110.393303060336066, -7.82627622208224, 0.0 ], [ 110.393297630208366, -7.82632187865127, 0.0 ], [ 110.39329760463032, -7.826339567285758, 0.0 ], [ 110.39332136126265, -7.826411077935302, 0.0 ], [ 110.3933453412821, -7.826455439924262, 0.0 ], [ 110.39338700695339, -7.826550835587304, 0.0 ], [ 110.393392891025314, -7.826573882013595, 0.0 ], [ 110.393402323051149, -7.82670378737122, 0.0 ], [ 110.393418639522054, -7.826803468349879, 0.0 ], [ 110.393432208524672, -7.826885660222047, 0.0 ], [ 110.393441372766404, -7.826943575847291, 0.0 ], [ 110.393459584622278, -7.827012097241631, 0.0 ], [ 110.393497583314868, -7.827083629265314, 0.0 ], [ 110.393529725275926, -7.827112573785167, 0.0 ], [ 110.393570915614745, -7.827152228994792, 0.0 ], [ 110.393604358441578, -7.827176651001754, 0.0 ], [ 110.393614870542464, -7.827197544099549, 0.0 ], [ 110.393629054740941, -7.827238188011393, 0.0 ], [ 110.393648749555481, -7.827304241304383, 0.0 ], [ 110.393657769841127, -7.82733438905114, 0.0 ], [ 110.393662353675225, -7.827361546430053, 0.0 ], [ 110.393649955683685, -7.827493273755008, 0.0 ], [ 110.393637332190366, -7.827604673616116, 0.0 ], [ 110.393637193460179, -7.827605898128354, 0.0 ], [ 110.393628409398616, -7.827683401426797, 0.0 ], [ 110.393632199780427, -7.827749330552117, 0.0 ], [ 110.393642531891729, -7.827796864034993, 0.0 ], [ 110.393691074705828, -7.827966990540538, 0.0 ], [ 110.393695490393057, -7.827982469500064, 0.0 ], [ 110.393707319410979, -7.828116389815713, 0.0 ], [ 110.393689123879696, -7.828291919831079, 0.0 ], [ 110.393665044501716, -7.828443582121382, 0.0 ], [ 110.393557258844737, -7.828666599639031, 0.0 ], [ 110.393452768487904, -7.8287841049085, 0.0 ], [ 110.393294411763549, -7.8289310478485, 0.0 ], [ 110.393146643844702, -7.829046432098705, 0.0 ], [ 110.393109770464392, -7.82909101497881, 0.0 ], [ 110.393091110148859, -7.829203909415463, 0.0 ], [ 110.393211743433355, -7.829563217416337, 0.0 ], [ 110.393448999176243, -7.829983681790413, 0.0 ], [ 110.393569525506663, -7.830287452424124, 0.0 ], [ 110.393719601508593, -7.830495620436476, 0.0 ], [ 110.393906890358622, -7.830807920666246, 0.0 ], [ 110.394020483959409, -7.830918334199651, 0.0 ], [ 110.394156677445935, -7.831132754934598, 0.0 ], [ 110.394392400692581, -7.831463739471181, 0.0 ], [ 110.394510953495313, -7.831598533947067, 0.0 ], [ 110.394584677235684, -7.83165170763757, 0.0 ], [ 110.394883298481361, -7.83184805583123, 0.0 ], [ 110.395030371218041, -7.831958414968308, 0.0 ], [ 110.395166081989686, -7.832124496614737, 0.0 ], [ 110.395226442461322, -7.832209842680274, 0.0 ], [ 110.395272633480076, -7.832245389399388, 0.0 ], [ 110.395384809405144, -7.83231291396052, 0.0 ], [ 110.39541808903914, -7.832333232747605, 0.0 ], [ 110.395411965254397, -7.832460568662031, 0.0 ], [ 110.395406168122861, -7.832747565304571, 0.0 ], [ 110.395395379676899, -7.832891093463627, 0.0 ], [ 110.395341428117092, -7.833229627158897, 0.0 ], [ 110.395295414850636, -7.833726580626925, 0.0 ], [ 110.395252383868382, -7.834343533856639, 0.0 ], [ 110.395032033455408, -7.834343216727687, 0.0 ], [ 110.395045204077974, -7.834478011792847, 0.0 ], [ 110.395060880710076, -7.834549432083572, 0.0 ], [ 110.395079032286787, -7.834639957446598, 0.0 ], [ 110.3951752718976, -7.834984831975568, 0.0 ], [ 110.395201950022354, -7.835083910894441, 0.0 ], [ 110.395231323796622, -7.835236471244301, 0.0 ], [ 110.39521750507879, -7.835455819502656, 0.0 ], [ 110.395210604724198, -7.835622726746839, 0.0 ], [ 110.394844571439108, -7.835652515139675, 0.0 ], [ 110.394496103260352, -7.835623071956868, 0.0 ], [ 110.394493516888687, -7.835858754626479, 0.0 ], [ 110.394365405849811, -7.83676612501688, 0.0 ], [ 110.39430668326105, -7.837161294003343, 0.0 ], [ 110.392018460802134, -7.836849459810794, 0.0 ], [ 110.391899115667016, -7.836803402538767, 0.0 ], [ 110.391526631272512, -7.836001244619285, 0.0 ], [ 110.390720121045888, -7.835888911008589, 0.0 ], [ 110.390667934305952, -7.836257112511974, 0.0 ], [ 110.39064599775331, -7.836381719051559, 0.0 ], [ 110.390280125035304, -7.83784085459533, 0.0 ], [ 110.389887078329821, -7.840072470001712, 0.0 ], [ 110.388931079303092, -7.840067270633384, 0.0 ], [ 110.388076169320158, -7.839974385118897, 0.0 ], [ 110.387654904584295, -7.839928616894606, 0.0 ], [ 110.387658816323125, -7.839889154188583, 0.0 ], [ 110.387750182005263, -7.838967219020439, 0.0 ], [ 110.387754683062866, -7.837960372159474, 0.0 ], [ 110.387803468217072, -7.837386301099279, 0.0 ], [ 110.38806703959753, -7.836525820592327, 0.0 ], [ 110.387954013249882, -7.834878902778375, 0.0 ], [ 110.38715356531219, -7.834527972757797, 0.0 ], [ 110.386769444827891, -7.834389771678971, 0.0 ], [ 110.38613678914173, -7.834194465594801, 0.0 ], [ 110.38604626402568, -7.834635580140108, 0.0 ], [ 110.385365669665887, -7.83468095705586, 0.0 ], [ 110.385249605405292, -7.835030957875858, 0.0 ], [ 110.385140851988226, -7.835062336846081, 0.0 ], [ 110.385110969758074, -7.834972022943946, 0.0 ], [ 110.385073542154586, -7.834875359210439, 0.0 ], [ 110.385034740570134, -7.834887380543372, 0.0 ], [ 110.385005537800581, -7.834968247437867, 0.0 ], [ 110.38496861551107, -7.835139163518362, 0.0 ], [ 110.384678992199525, -7.835287598999108, 0.0 ], [ 110.384069847350887, -7.835540573975337, 0.0 ], [ 110.383755430228859, -7.834887935046571, 0.0 ], [ 110.383706334923872, -7.834791837565144, 0.0 ], [ 110.384534650601168, -7.834491666423464, 0.0 ], [ 110.385076855751052, -7.834302756342581, 0.0 ], [ 110.385630760980035, -7.834128848537646, 0.0 ], [ 110.385872700900222, -7.834087783511388, 0.0 ], [ 110.386127541168989, -7.834054397445683, 0.0 ], [ 110.386372127945279, -7.834023727922531, 0.0 ], [ 110.386933793480978, -7.833996445666033, 0.0 ], [ 110.386938077060705, -7.833827379531964, 0.0 ], [ 110.386747774922711, -7.833787760029431, 0.0 ], [ 110.386789062064025, -7.833572082131238, 0.0 ], [ 110.386167048832974, -7.833389196141744, 0.0 ], [ 110.386198361083885, -7.833202351403213, 0.0 ], [ 110.386213612499461, -7.832954167287133, 0.0 ], [ 110.386209686063907, -7.832705676653998, 0.0 ], [ 110.386193610815241, -7.832611467282434, 0.0 ], [ 110.386174410446031, -7.83249894964824, 0.0 ], [ 110.386132007578212, -7.83236272623575, 0.0 ], [ 110.386053352585748, -7.832110032054185, 0.0 ], [ 110.386017681838581, -7.831995434473141, 0.0 ], [ 110.385937566420964, -7.83173546587011, 0.0 ], [ 110.386130714006299, -7.831664050060824, 0.0 ], [ 110.386188121197918, -7.831751125119824, 0.0 ], [ 110.386352684142537, -7.831726529473391, 0.0 ], [ 110.386346038511405, -7.831784045885286, 0.0 ], [ 110.386414984292927, -7.831746403640966, 0.0 ], [ 110.386441402147057, -7.831799899675564, 0.0 ], [ 110.38663679483841, -7.831750016103004, 0.0 ], [ 110.386424729194047, -7.831295327524895, 0.0 ], [ 110.386505309426084, -7.830903022049116, 0.0 ], [ 110.386423734312956, -7.830441680687568, 0.0 ], [ 110.386197371622913, -7.830428481848559, 0.0 ], [ 110.385984126021569, -7.830415521785786, 0.0 ], [ 110.385862618263047, -7.830406088963728, 0.0 ], [ 110.385535447385919, -7.830384528162072, 0.0 ], [ 110.385281728682585, -7.830349190832819, 0.0 ], [ 110.385170960260183, -7.830331649140146, 0.0 ], [ 110.384822239503279, -7.830248248337856, 0.0 ], [ 110.384495627479254, -7.830112437721233, 0.0 ], [ 110.384553326748716, -7.829001285274092, 0.0 ], [ 110.383544208453699, -7.829066032646284, 0.0 ], [ 110.383411617398352, -7.829047327079497, 0.0 ], [ 110.3830423433824, -7.828979835979113, 0.0 ], [ 110.382949320250802, -7.828970443116322, 0.0 ], [ 110.380882016696688, -7.828946853028928, 0.0 ], [ 110.380816533152242, -7.828594286808546, 0.0 ], [ 110.380810834753575, -7.82855099394351, 0.0 ], [ 110.380666576089396, -7.828541526273585, 0.0 ], [ 110.380392491454586, -7.828520040463109, 0.0 ], [ 110.380188841396958, -7.828523854964404, 0.0 ], [ 110.37982678908304, -7.828534464540643, 0.0 ], [ 110.379712949003192, -7.828537425842925, 0.0 ], [ 110.380160684644693, -7.830018345161853, 0.0 ], [ 110.380140546250914, -7.830024297999662, 0.0 ], [ 110.379202428514006, -7.830301577141416, 0.0 ], [ 110.377912473553792, -7.83068284691316, 0.0 ], [ 110.377998036796882, -7.8309825417751, 0.0 ], [ 110.378231635366106, -7.831800736181489, 0.0 ], [ 110.37746243018735, -7.831803244460576, 0.0 ], [ 110.377245151930566, -7.830968853253494, 0.0 ], [ 110.376998932209347, -7.830023321752274, 0.0 ], [ 110.376468318755201, -7.830084871880461, 0.0 ], [ 110.376519109814069, -7.830206595547018, 0.0 ], [ 110.37671156516231, -7.830601285687051, 0.0 ], [ 110.37681531838426, -7.830913484433572, 0.0 ], [ 110.376822571820554, -7.831033138424065, 0.0 ], [ 110.376827323352003, -7.831111512267764, 0.0 ], [ 110.376851653692199, -7.831379872277333, 0.0 ], [ 110.376421754159836, -7.831241790846838, 0.0 ], [ 110.376218910251282, -7.831176637381814, 0.0 ], [ 110.375847597338222, -7.830988292476758, 0.0 ], [ 110.375621865995896, -7.830879131169653, 0.0 ], [ 110.375469871805251, -7.830805631665503, 0.0 ], [ 110.375337019037204, -7.830821359687423, 0.0 ], [ 110.375266853829487, -7.830830787468845, 0.0 ], [ 110.375191286199097, -7.830840942600238, 0.0 ], [ 110.375163923925001, -7.830844619592757, 0.0 ], [ 110.374980952342, -7.830813624905265, 0.0 ], [ 110.374925401941809, -7.830784171293346, 0.0 ], [ 110.374900932135901, -7.830748933276573, 0.0 ], [ 110.374697172139534, -7.82997243539256, 0.0 ], [ 110.374641674215439, -7.829972353096511, 0.0 ], [ 110.374610056316087, -7.829909075494222, 0.0 ], [ 110.374577562335062, -7.829309888561532, 0.0 ], [ 110.374658695278654, -7.829310008870855, 0.0 ], [ 110.374664456796765, -7.829243015792733, 0.0 ], [ 110.374921181463591, -7.82927326421687, 0.0 ], [ 110.374957350879953, -7.829208075471857, 0.0 ], [ 110.37537012600653, -7.829257792906278, 0.0 ], [ 110.375695406215996, -7.82871890573205, 0.0 ], [ 110.37584614557494, -7.82865996296951, 0.0 ], [ 110.375749972987336, -7.828477303929386, 0.0 ], [ 110.375741264234478, -7.828363029618522, 0.0 ], [ 110.375745992738828, -7.828169689292411, 0.0 ], [ 110.375805498042027, -7.827956168984248, 0.0 ], [ 110.375853212930153, -7.827710954341181, 0.0 ], [ 110.375878062952978, -7.827294882649059, 0.0 ], [ 110.375878459225703, -7.827028515638202, 0.0 ], [ 110.375869543983242, -7.826928640829571, 0.0 ], [ 110.375809124340805, -7.826761944152201, 0.0 ], [ 110.375755033796395, -7.826692854461143, 0.0 ], [ 110.375586981459804, -7.826515713290134, 0.0 ], [ 110.375320401533841, -7.826300476532321, 0.0 ], [ 110.375290677738406, -7.826263306874663, 0.0 ], [ 110.37521262420762, -7.826138645582751, 0.0 ], [ 110.375163856248136, -7.825972684271487, 0.0 ], [ 110.375143597708572, -7.825790208108698, 0.0 ], [ 110.375129093245377, -7.82559313623482, 0.0 ], [ 110.375150247396164, -7.825299033307028, 0.0 ], [ 110.37513923808315, -7.824865938120376, 0.0 ], [ 110.375138416138995, -7.824365340797931, 0.0 ], [ 110.375133290850158, -7.824364575228682, 0.0 ], [ 110.375010506984523, -7.824346245295159, 0.0 ], [ 110.374820267100958, -7.824310722857333, 0.0 ], [ 110.374492759098217, -7.824271671008971, 0.0 ], [ 110.374128818658875, -7.824229376479853, 0.0 ], [ 110.373967921440055, -7.824216487338113, 0.0 ], [ 110.373893758456845, -7.824211235170145, 0.0 ], [ 110.37385034511199, -7.824175484194606, 0.0 ], [ 110.373776434341906, -7.824127037474961, 0.0 ], [ 110.373692502916484, -7.824054292475073, 0.0 ], [ 110.373578739884664, -7.824008329157084, 0.0 ], [ 110.37338623693617, -7.823988259915722, 0.0 ], [ 110.373301185147469, -7.823997113602949, 0.0 ], [ 110.373358915360768, -7.824415103113274, 0.0 ], [ 110.373385550718908, -7.82475644796673, 0.0 ], [ 110.373326880556448, -7.824772301029912, 0.0 ], [ 110.37293049821487, -7.824749814886538, 0.0 ], [ 110.372893013451943, -7.824766659055288, 0.0 ], [ 110.372275789529269, -7.82480035423578, 0.0 ], [ 110.372256220407834, -7.824884862472112, 0.0 ], [ 110.372256126629964, -7.824953615974037, 0.0 ], [ 110.372175112357823, -7.825785311180874, 0.0 ], [ 110.372155202128894, -7.825928609351946, 0.0 ], [ 110.372092397212569, -7.826137454146293, 0.0 ], [ 110.371987464052623, -7.82625906494488, 0.0 ], [ 110.371690285337465, -7.826251655036047, 0.0 ], [ 110.371629314565467, -7.825734646596664, 0.0 ], [ 110.371667579959507, -7.825736872598732, 0.0 ], [ 110.371709971823734, -7.825324449207423, 0.0 ], [ 110.371639421112619, -7.82531510729132, 0.0 ], [ 110.371568215982279, -7.825307288488724, 0.0 ], [ 110.371512505496185, -7.825293320375933, 0.0 ], [ 110.371458333626691, -7.825283983831267, 0.0 ], [ 110.371418078176191, -7.825285466958758, 0.0 ], [ 110.37136545177016, -7.825279217988945, 0.0 ], [ 110.371238383362581, -7.825272860804458, 0.0 ], [ 110.371266509103236, -7.824915573252087, 0.0 ], [ 110.369649633688766, -7.824647336399345, 0.0 ], [ 110.369507852825379, -7.824618095245015, 0.0 ], [ 110.369367798600351, -7.824629516153356, 0.0 ], [ 110.369199728150505, -7.824973721293679, 0.0 ], [ 110.369099185581959, -7.825161553447255, 0.0 ], [ 110.368947274947274, -7.825583541503608, 0.0 ], [ 110.368915607604066, -7.825671516508188, 0.0 ], [ 110.368792073255761, -7.825992315089309, 0.0 ], [ 110.368692644283584, -7.826250517815807, 0.0 ], [ 110.368559105315271, -7.826514581329936, 0.0 ], [ 110.368373160834537, -7.826883936271285, 0.0 ], [ 110.368353049654729, -7.826933884838873, 0.0 ], [ 110.368302871197969, -7.826928812289124, 0.0 ], [ 110.367871985242147, -7.826928165957057, 0.0 ], [ 110.367551290932781, -7.826872710118892, 0.0 ], [ 110.36751158012315, -7.826872612594421, 0.0 ], [ 110.367475603483086, -7.8268725242831, 0.0 ], [ 110.367484645228032, -7.82677285094587, 0.0 ], [ 110.367469379242635, -7.826770451006293, 0.0 ], [ 110.367166322933883, -7.826722820918291, 0.0 ], [ 110.367268246799497, -7.825569925026794, 0.0 ], [ 110.366715887361408, -7.825531195596281, 0.0 ], [ 110.3662516603966, -7.825537682196551, 0.0 ], [ 110.36581758169433, -7.825544735501506, 0.0 ], [ 110.36496069104733, -7.825537406387503, 0.0 ], [ 110.364684427648754, -7.825574059094357, 0.0 ], [ 110.364300489403703, -7.825610547594151, 0.0 ], [ 110.363161119712117, -7.825664327384423, 0.0 ], [ 110.362387091678201, -7.825718758543762, 0.0 ], [ 110.361544267312766, -7.825820461421112, 0.0 ], [ 110.360911832515797, -7.825858342626688, 0.0 ], [ 110.36099273963427, -7.825360552277155, 0.0 ], [ 110.361174369998821, -7.824260361573568, 0.0 ], [ 110.360427956007712, -7.824136677347047, 0.0 ], [ 110.360331196486158, -7.824716179449728, 0.0 ], [ 110.359700150694991, -7.824581946718469, 0.0 ], [ 110.359342259412045, -7.824484465569947, 0.0 ], [ 110.359137268965625, -7.826039320348319, 0.0 ], [ 110.357885156212205, -7.825978588297824, 0.0 ], [ 110.357434266287626, -7.825957702373514, 0.0 ], [ 110.356647476266701, -7.825909127073731, 0.0 ], [ 110.356125086549, -7.825866578123239, 0.0 ], [ 110.355904500007554, -7.825863326208713, 0.0 ], [ 110.354684917442412, -7.825837201048725, 0.0 ], [ 110.354579678093771, -7.825837040075026, 0.0 ], [ 110.354237769887149, -7.825819025551066, 0.0 ], [ 110.353860867293847, -7.825786378315835, 0.0 ], [ 110.353468630095065, -7.825738923986473, 0.0 ], [ 110.352877607181171, -7.825639101038641, 0.0 ], [ 110.352715101518143, -7.82561573618866, 0.0 ], [ 110.352526367284312, -7.825600975402628, 0.0 ], [ 110.351997971011826, -7.82568981171084, 0.0 ], [ 110.351811575299877, -7.825735964591193, 0.0 ], [ 110.351776971133702, -7.82574118651255, 0.0 ], [ 110.351750482063522, -7.82574518624737, 0.0 ], [ 110.351629607277204, -7.825584498496593, 0.0 ], [ 110.351324286736542, -7.825034788275584, 0.0 ], [ 110.351327264514183, -7.824926193245666, 0.0 ], [ 110.351396465933774, -7.824737630354319, 0.0 ], [ 110.351442584401838, -7.824583393279039, 0.0 ], [ 110.351523287412718, -7.824223462073419, 0.0 ], [ 110.351597505478551, -7.82406000147394, 0.0 ], [ 110.351644820585548, -7.823858493050162, 0.0 ], [ 110.351793169657242, -7.823711075554438, 0.0 ], [ 110.351923241899215, -7.823635683860168, 0.0 ], [ 110.352060497691738, -7.823639537961403, 0.0 ], [ 110.352190531712708, -7.823711685683187, 0.0 ], [ 110.352342238691065, -7.82369390707442, 0.0 ], [ 110.352465100945068, -7.823679725699354, 0.0 ], [ 110.352573452148548, -7.823604298657783, 0.0 ], [ 110.352606207516914, -7.823492731827819, 0.0 ], [ 110.352566897069195, -7.823241007809637, 0.0 ], [ 110.352322184446948, -7.822975849673203, 0.0 ], [ 110.352056875025227, -7.822710661607744, 0.0 ], [ 110.351822103259934, -7.822557450319265, 0.0 ], [ 110.351674186160778, -7.822424882926044, 0.0 ], [ 110.351030280364711, -7.821770529226763, 0.0 ], [ 110.350881399606322, -7.821535920884433, 0.0 ], [ 110.350795817353955, -7.82129682942418, 0.0 ], [ 110.350792046701997, -7.821072337686905, 0.0 ], [ 110.350849402021339, -7.820794108212629, 0.0 ], [ 110.350923728477156, -7.82056140512744, 0.0 ], [ 110.351002078603088, -7.820391286516791, 0.0 ], [ 110.350923398605104, -7.82016928278305, 0.0 ], [ 110.350859171098378, -7.819925953990877, 0.0 ], [ 110.350895412924928, -7.819739944491393, 0.0 ], [ 110.351075113610008, -7.819539784673166, 0.0 ], [ 110.351247643253998, -7.81937553805044, 0.0 ], [ 110.351305484215999, -7.819146557794229, 0.0 ], [ 110.351325049774587, -7.818966978078736, 0.0 ], [ 110.351281878782487, -7.818815950440564, 0.0 ], [ 110.351235073500519, -7.818663740452533, 0.0 ], [ 110.351222250651105, -7.818479216693114, 0.0 ], [ 110.351191573564634, -7.818336418453221, 0.0 ], [ 110.351191193843661, -7.818097249924485, 0.0 ], [ 110.351241609800041, -7.817826090125293, 0.0 ], [ 110.351272236276856, -7.817516581377238, 0.0 ], [ 110.351272478610483, -7.817359670571654, 0.0 ], [ 110.351311294468573, -7.817202714085608, 0.0 ], [ 110.351510862316843, -7.817112435955436, 0.0 ], [ 110.351829378716388, -7.816994329493945, 0.0 ], [ 110.351934408848606, -7.816886411085296, 0.0 ], [ 110.352144655948109, -7.816670472252249, 0.0 ], [ 110.352200832537676, -7.816548528616273, 0.0 ], [ 110.35237372754959, -7.816267350846358, 0.0 ], [ 110.352488390474349, -7.816105305941116, 0.0 ], [ 110.35250410619102, -7.815993293224811, 0.0 ], [ 110.352510269449439, -7.815881892689123, 0.0 ], [ 110.352460041997247, -7.815789043998356, 0.0 ], [ 110.352318781793471, -7.815711568047887, 0.0 ], [ 110.352212137763956, -7.815653511541869, 0.0 ], [ 110.352150275242451, -7.815576159089476, 0.0 ], [ 110.352136953762837, -7.815471808262791, 0.0 ], [ 110.352162368167001, -7.81526318824666, 0.0 ], [ 110.352189513435761, -7.814902551231382, 0.0 ], [ 110.352127481122153, -7.814692441263263, 0.0 ], [ 110.352053496569752, -7.814583521001455, 0.0 ], [ 110.351956213574866, -7.814525061831323, 0.0 ], [ 110.351792343875402, -7.814540324569696, 0.0 ], [ 110.351597189305537, -7.814563349654307, 0.0 ], [ 110.35143729149587, -7.814551442427808, 0.0 ], [ 110.35130484184279, -7.814469606414018, 0.0 ], [ 110.351184048792547, -7.814356657837595, 0.0 ], [ 110.351137440669902, -7.814224455852171, 0.0 ], [ 110.351188510635353, -7.814014519456314, 0.0 ], [ 110.351346895212842, -7.81367220220784, 0.0 ], [ 110.351485658044012, -7.813477277693575, 0.0 ], [ 110.351475517100269, -7.813474898652697, 0.0 ], [ 110.351117754543523, -7.813390928545208, 0.0 ], [ 110.34995903339356, -7.813145085459832, 0.0 ], [ 110.349293187633265, -7.813005475771566, 0.0 ], [ 110.348995686796655, -7.812976590736679, 0.0 ], [ 110.347462028577866, -7.812768169722269, 0.0 ], [ 110.347325594333853, -7.812749295446367, 0.0 ], [ 110.346589523071216, -7.812647465646939, 0.0 ], [ 110.346419249484384, -7.812623909499816, 0.0 ], [ 110.346039014833536, -7.812574385686007, 0.0 ], [ 110.345881947632463, -7.812550402031903, 0.0 ], [ 110.345777296165934, -7.81253607909109, 0.0 ], [ 110.345793102712591, -7.812245499234677, 0.0 ], [ 110.345822332324644, -7.812234195637407, 0.0 ], [ 110.345834300398252, -7.811883635630416, 0.0 ], [ 110.345918767047095, -7.811391893960486, 0.0 ], [ 110.346041415815279, -7.810790259512734, 0.0 ], [ 110.34613674307478, -7.810419732981778, 0.0 ], [ 110.345793727874721, -7.810415311999438, 0.0 ], [ 110.345756205203315, -7.810414828810918, 0.0 ], [ 110.345613383791814, -7.810412988681935, 0.0 ], [ 110.345636887952523, -7.810350135639081, 0.0 ], [ 110.345673489722884, -7.810100805400195, 0.0 ], [ 110.34568022922808, -7.810054912129935, 0.0 ], [ 110.345679148543212, -7.810010342711636, 0.0 ], [ 110.345676005514349, -7.809880607201859, 0.0 ], [ 110.345622256453936, -7.809765155117438, 0.0 ], [ 110.345576058374007, -7.809731036176301, 0.0 ], [ 110.345533788948657, -7.809698901467949, 0.0 ], [ 110.345389758114791, -7.809360178713173, 0.0 ], [ 110.345364404887547, -7.809287149408183, 0.0 ], [ 110.345362529414444, -7.808928760256988, 0.0 ], [ 110.345364888148893, -7.808856710926836, 0.0 ], [ 110.345307840339771, -7.808574242926531, 0.0 ], [ 110.345274872360577, -7.808462677994741, 0.0 ], [ 110.345094669869241, -7.808264567095952, 0.0 ], [ 110.344955302346662, -7.808057566587324, 0.0 ], [ 110.344798812205099, -7.807783066954473, 0.0 ], [ 110.344864547205873, -7.807776921374298, 0.0 ], [ 110.345214869323186, -7.807793081175796, 0.0 ], [ 110.345260222981295, -7.807166963379662, 0.0 ], [ 110.345263548255232, -7.807075861207482, 0.0 ], [ 110.344797544283992, -7.807034323643075, 0.0 ], [ 110.344797987667206, -7.806871373881848, 0.0 ], [ 110.34479800800689, -7.806857733956609, 0.0 ], [ 110.344858744679698, -7.806814825098506, 0.0 ], [ 110.344913732506981, -7.806734945574783, 0.0 ], [ 110.344937221534252, -7.806682296265658, 0.0 ], [ 110.344950670042536, -7.806583296251593, 0.0 ], [ 110.344945733304669, -7.806507072178019, 0.0 ], [ 110.344901268564186, -7.806322291331688, 0.0 ], [ 110.344883977718155, -7.806242194020313, 0.0 ], [ 110.344915374397374, -7.806162277042373, 0.0 ], [ 110.345026059267937, -7.806148600464788, 0.0 ], [ 110.345064663215879, -7.806129500986942, 0.0 ], [ 110.345135614977295, -7.80601955501781, 0.0 ], [ 110.345238478178061, -7.805738376553287, 0.0 ], [ 110.345306142605352, -7.805575634835059, 0.0 ], [ 110.345382440722688, -7.805399266502657, 0.0 ], [ 110.345411949355352, -7.805328404278997, 0.0 ], [ 110.345537793826608, -7.804958550873597, 0.0 ], [ 110.34558844572615, -7.804898654113537, 0.0 ], [ 110.345693117997442, -7.804778244385242, 0.0 ], [ 110.345707963334604, -7.804744322115938, 0.0 ], [ 110.345712488433719, -7.804604182138116, 0.0 ], [ 110.345793554910912, -7.804371282165712, 0.0 ], [ 110.345920222716117, -7.804074627059833, 0.0 ], [ 110.345960746942197, -7.803903513618546, 0.0 ], [ 110.346014652666199, -7.803676819014383, 0.0 ], [ 110.346106072252923, -7.803528793964301, 0.0 ], [ 110.34621115291759, -7.803387455308492, 0.0 ], [ 110.346251984548715, -7.803259447470969, 0.0 ], [ 110.346285482848771, -7.803151629552409, 0.0 ], [ 110.346317229299927, -7.802965300442295, 0.0 ], [ 110.346494488998516, -7.802525659187585, 0.0 ], [ 110.346545233272039, -7.802404226095525, 0.0 ], [ 110.346675555941744, -7.802285104770641, 0.0 ], [ 110.346837432422944, -7.80234605793416, 0.0 ], [ 110.347310619865013, -7.802460904280753, 0.0 ], [ 110.347475466904271, -7.80193388515905, 0.0 ], [ 110.347599458711784, -7.801429086385638, 0.0 ], [ 110.347715307022156, -7.80098372553233, 0.0 ], [ 110.347914042464652, -7.800457071299196, 0.0 ], [ 110.348143734024731, -7.799893188038176, 0.0 ], [ 110.348317358920724, -7.799500394484747, 0.0 ], [ 110.34795102966595, -7.799305955559546, 0.0 ], [ 110.348232033092842, -7.798858038485043, 0.0 ], [ 110.348401906737635, -7.798589770735424, 0.0 ], [ 110.34784228255667, -7.798310382293403, 0.0 ], [ 110.347769686672208, -7.798274035898944, 0.0 ], [ 110.34802311802973, -7.797734864999826, 0.0 ], [ 110.348276983842169, -7.797156546565414, 0.0 ], [ 110.348399491098917, -7.79700450830776, 0.0 ], [ 110.348470185085205, -7.796817405748068, 0.0 ], [ 110.348094803719889, -7.796664705241588, 0.0 ], [ 110.347758972336166, -7.796607754984938, 0.0 ], [ 110.347934658669217, -7.795971632228396, 0.0 ], [ 110.348306951907617, -7.796061749724615, 0.0 ], [ 110.348251500059519, -7.795473999543353, 0.0 ], [ 110.348201325712324, -7.795105539037333, 0.0 ], [ 110.348708318071729, -7.795028747481294, 0.0 ], [ 110.348802768509458, -7.795463811622026, 0.0 ], [ 110.349358094689336, -7.795492360233946, 0.0 ], [ 110.349512853332357, -7.794947102008635, 0.0 ], [ 110.349637739043771, -7.794708856497132, 0.0 ], [ 110.349828653485531, -7.794272668495464, 0.0 ], [ 110.349895177276693, -7.794118357543588, 0.0 ], [ 110.349802330175095, -7.794100618742389, 0.0 ], [ 110.349705994594871, -7.793917425614904, 0.0 ], [ 110.349404314396494, -7.793692891388853, 0.0 ], [ 110.349148535478989, -7.793573590087602, 0.0 ], [ 110.34900670131465, -7.793510482634067, 0.0 ], [ 110.348858331361029, -7.793435911309613, 0.0 ], [ 110.348678459835696, -7.793347239979325, 0.0 ], [ 110.348608574966164, -7.793296005233395, 0.0 ], [ 110.348659826303262, -7.793232533326814, 0.0 ], [ 110.348715133061049, -7.793164037679967, 0.0 ], [ 110.348710690316622, -7.793010658909946, 0.0 ], [ 110.34871489254293, -7.792935305407906, 0.0 ], [ 110.348736495858361, -7.792547979578566, 0.0 ], [ 110.348746553417172, -7.792340480165893, 0.0 ], [ 110.348786150746477, -7.792040878523135, 0.0 ], [ 110.348925951976113, -7.791722375584595, 0.0 ], [ 110.348979616540205, -7.791528478204795, 0.0 ], [ 110.349102658169087, -7.791029089467452, 0.0 ], [ 110.349193727839761, -7.790619821045816, 0.0 ], [ 110.349449974818427, -7.789950502352282, 0.0 ], [ 110.349513722745371, -7.789774425567519, 0.0 ], [ 110.349581818297466, -7.789785373316781, 0.0 ], [ 110.350161463504904, -7.790010626599202, 0.0 ], [ 110.350273289814837, -7.789680155118929, 0.0 ], [ 110.349693740314791, -7.789481286663221, 0.0 ], [ 110.349762466517362, -7.789354987110528, 0.0 ], [ 110.349812533285146, -7.788821854619284, 0.0 ], [ 110.349830947679919, -7.788658306201106, 0.0 ], [ 110.349901533465399, -7.788297529306496, 0.0 ], [ 110.349949153989328, -7.788014910086472, 0.0 ], [ 110.349995586872041, -7.787773729975535, 0.0 ], [ 110.350043132059042, -7.78741926733959, 0.0 ], [ 110.350063205969008, -7.78727217353149, 0.0 ], [ 110.350111311214619, -7.787160940309104, 0.0 ], [ 110.350183162394629, -7.786707807719075, 0.0 ], [ 110.350223912867804, -7.786387278994016, 0.0 ], [ 110.350515811301918, -7.783962930253966, 0.0 ], [ 110.35070936832922, -7.78204852513321, 0.0 ], [ 110.350783387886793, -7.781522822288561, 0.0 ], [ 110.350796700736993, -7.781388836103302, 0.0 ], [ 110.351182906991397, -7.781454736931016, 0.0 ], [ 110.35124600227438, -7.781193773235599, 0.0 ], [ 110.351311198397028, -7.780681696711377, 0.0 ], [ 110.351312047506923, -7.780494486426058, 0.0 ], [ 110.351306005013171, -7.780406390707998, 0.0 ], [ 110.351306168399162, -7.780300082245449, 0.0 ], [ 110.351309312318079, -7.780202941011659, 0.0 ], [ 110.351297283260493, -7.780111919100393, 0.0 ], [ 110.351264029056068, -7.780063243684984, 0.0 ], [ 110.351230629965272, -7.779987288064614, 0.0 ], [ 110.351233742153752, -7.779911387359779, 0.0 ], [ 110.351246024897918, -7.779838521733704, 0.0 ], [ 110.351255245762331, -7.779808234789846, 0.0 ], [ 110.351221838315439, -7.779738317656794, 0.0 ], [ 110.35121892126341, -7.779686669369689, 0.0 ], [ 110.351231451243109, -7.779452934537645, 0.0 ], [ 110.351204011789719, -7.778910624248376, 0.0 ], [ 110.351198235371157, -7.778648228294614, 0.0 ], [ 110.351189559426984, -7.778446112507789, 0.0 ], [ 110.351183583786067, -7.778313347722735, 0.0 ], [ 110.351144463197272, -7.77818365553722, 0.0 ], [ 110.351084424945611, -7.77789691498663, 0.0 ], [ 110.351063321248262, -7.777741117274212, 0.0 ], [ 110.351047110332473, -7.777351644494624, 0.0 ], [ 110.351025401597909, -7.776830094171713, 0.0 ], [ 110.35101077574717, -7.776477931172, 0.0 ], [ 110.350963062078705, -7.776091773180118, 0.0 ], [ 110.350952567384056, -7.776016837578104, 0.0 ], [ 110.350900091194987, -7.775642182173344, 0.0 ], [ 110.350817578065516, -7.775238893838937, 0.0 ], [ 110.350661932565728, -7.775144150952749, 0.0 ], [ 110.350771269727403, -7.774792347542738, 0.0 ], [ 110.350990453087121, -7.773984279624824, 0.0 ], [ 110.351054526550257, -7.773716158093655, 0.0 ], [ 110.351113928372712, -7.77295272031447, 0.0 ], [ 110.351128432651478, -7.772774798428614, 0.0 ], [ 110.351026763676771, -7.77094521490392, 0.0 ], [ 110.350983357442445, -7.770559376404614, 0.0 ], [ 110.351073604290036, -7.770559203109634, 0.0 ], [ 110.351061369857518, -7.770478593571647, 0.0 ], [ 110.351038697148056, -7.770369021086474, 0.0 ], [ 110.351035592520589, -7.770317269382159, 0.0 ], [ 110.351033231706751, -7.770283720249338, 0.0 ], [ 110.351057127705729, -7.770007087330358, 0.0 ], [ 110.351091568744593, -7.769629001776339, 0.0 ], [ 110.351143798511671, -7.76919170978445, 0.0 ], [ 110.351174724819415, -7.76884693099748, 0.0 ], [ 110.351170325271454, -7.768705873317717, 0.0 ], [ 110.351133897959144, -7.768498140592243, 0.0 ], [ 110.351078677769323, -7.768221546023406, 0.0 ], [ 110.351086920543082, -7.768220310387257, 0.0 ], [ 110.351087073844042, -7.768220286199585, 0.0 ], [ 110.351188986205841, -7.768204272797739, 0.0 ], [ 110.35124312030554, -7.768188163823169, 0.0 ], [ 110.351376075642108, -7.768145970615423, 0.0 ], [ 110.351402201480155, -7.768356231992628, 0.0 ], [ 110.351292405039459, -7.7683849679927, 0.0 ], [ 110.351390394671085, -7.76930960733224, 0.0 ], [ 110.351425696553974, -7.769815892369094, 0.0 ], [ 110.351687517450046, -7.770520639562223, 0.0 ], [ 110.352190668346807, -7.771968691432424, 0.0 ], [ 110.352529684334741, -7.772057660280598, 0.0 ], [ 110.352962747211649, -7.772105250641676, 0.0 ], [ 110.35323400687119, -7.772093353389357, 0.0 ], [ 110.353352979291628, -7.772012450687963, 0.0 ], [ 110.353443397483687, -7.771876821467584, 0.0 ], [ 110.353448157813432, -7.771379514972447, 0.0 ], [ 110.353351606338506, -7.771096198678487, 0.0 ], [ 110.35319034421434, -7.770494333228429, 0.0 ], [ 110.353088858455536, -7.770201681176054, 0.0 ], [ 110.352976586659096, -7.769786737483643, 0.0 ], [ 110.352866016899341, -7.769401661454782, 0.0 ], [ 110.352734319994255, -7.769054781410172, 0.0 ], [ 110.352650562108607, -7.768663597328808, 0.0 ], [ 110.352635644339827, -7.768503357046387, 0.0 ], [ 110.352617947595022, -7.768360473683061, 0.0 ], [ 110.352633429791538, -7.768258137557402, 0.0 ], [ 110.352732415673202, -7.768105851360904, 0.0 ], [ 110.352772391182327, -7.767972601121298, 0.0 ], [ 110.352858052124859, -7.767605213094823, 0.0 ], [ 110.352903736835501, -7.767395819967941, 0.0 ], [ 110.352892315300153, -7.767192138699619, 0.0 ], [ 110.352886605320094, -7.767140742108325, 0.0 ], [ 110.352740029856378, -7.766982746236915, 0.0 ], [ 110.352580130636397, -7.766868532707615, 0.0 ], [ 110.352433555695242, -7.76676954694145, 0.0 ], [ 110.352345992161943, -7.766710535392365, 0.0 ], [ 110.352264138434862, -7.76657157480118, 0.0 ], [ 110.352230877729951, -7.76649630239918, 0.0 ], [ 110.352227970368119, -7.766489722185156, 0.0 ], [ 110.352259005396789, -7.766468025977912, 0.0 ], [ 110.35266198361326, -7.766615357640618, 0.0 ] ] ] ] } }
]
}
