{
"type": "FeatureCollection",
"name": "Transport Hub",
"crs": { "type": "name", "properties": { "name": "urn:ogc:def:crs:OGC:1.3:CRS84" } },
"features": [
{ "type": "Feature", "properties": { "Name": "Trans Jogja Halte Taman Pintar", "Comm_400": 35.0, "Edu_400": 0.0, "Health_400": 0.0, "sum_400": 35, "Comm_800": 88.0, "Edu_800": 0.0, "Health_800": 0.0, "sum_800": 88, "Access_sco": 2.0, "Divers_sco": 1, "TOD_Score": 3, "TOD_Class": "Low", "Type": "Bus Stop", "Hub_id": 3 }, "geometry": { "type": "Point", "coordinates": [ 110.367048200000013, -7.8015606, 0.0 ] } },
{ "type": "Feature", "properties": { "Name": "TPB Trans Jogja Tamansari", "Comm_400": 14.0, "Edu_400": 1.0, "Health_400": 0.0, "sum_400": 15, "Comm_800": 46.0, "Edu_800": 4.0, "Health_800": 0.0, "sum_800": 50, "Access_sco": 4.0, "Divers_sco": 2, "TOD_Score": 6, "TOD_Class": "Medium", "Type": "Bus Stop", "Hub_id": 6 }, "geometry": { "type": "Point", "coordinates": [ 110.3560568, -7.8098934, 0.0 ] } },
{ "type": "Feature", "properties": { "Name": "TPB Katamso 1 Purawisata", "Comm_400": 20.0, "Edu_400": 0.0, "Health_400": 0.0, "sum_400": 20, "Comm_800": 65.0, "Edu_800": 1.0, "Health_800": 0.0, "sum_800": 66, "Access_sco": 3.0, "Divers_sco": 2, "TOD_Score": 5, "TOD_Class": "Medium", "Type": "Bus Stop", "Hub_id": 7 }, "geometry": { "type": "Point", "coordinates": [ 110.3691567, -7.8087558, 0.0 ] } },
{ "type": "Feature", "properties": { "Name": "Stasiun Tugu Yogyakarta", "Comm_400": 70.0, "Edu_400": 0.0, "Health_400": 0.0, "sum_400": 70, "Comm_800": 114.0, "Edu_800": 0.0, "Health_800": 1.0, "sum_800": 115, "Access_sco": 3.0, "Divers_sco": 2, "TOD_Score": 5, "TOD_Class": "Medium", "Type": "Railway Station", "Hub_id": 8 }, "geometry": { "type": "Point", "coordinates": [ 110.36298140000001, -7.7893103, 0.0 ] } },
{ "type": "Feature", "properties": { "Name": "Lempuyangan", "Comm_400": 83.0, "Edu_400": 0.0, "Health_400": 0.0, "sum_400": 83, "Comm_800": 166.0, "Edu_800": 2.0, "Health_800": 1.0, "sum_800": 169, "Access_sco": 4.0, "Divers_sco": 3, "TOD_Score": 7, "TOD_Class": "High", "Type": "Railway Station", "Hub_id": 1 }, "geometry": { "type": "Point", "coordinates": [ 110.3753052, -7.790133, 0.0 ] } },
{ "type": "Feature", "properties": { "Name": "Halte TransJogja SMP 5", "Comm_400": 139.0, "Edu_400": 0.0, "Health_400": 1.0, "sum_400": 140, "Comm_800": 154.0, "Edu_800": 3.0, "Health_800": 0.0, "sum_800": 157, "Access_sco": 5.0, "Divers_sco": 3, "TOD_Score": 8, "TOD_Class": "High", "Type": "Bus Stop", "Hub_id": 2 }, "geometry": { "type": "Point", "coordinates": [ 110.3753743, -7.7872943, 0.0 ] } },
{ "type": "Feature", "properties": { "Name": "Halte Malioboro 1(ꦲꦭ꧀ꦠꦼꦩꦭꦶꦪꦧꦫ꧇꧑꧇)", "Comm_400": 108.0, "Edu_400": 0.0, "Health_400": 0.0, "sum_400": 108, "Comm_800": 124.0, "Edu_800": 1.0, "Health_800": 0.0, "sum_800": 125, "Access_sco": 3.0, "Divers_sco": 2, "TOD_Score": 5, "TOD_Class": "Medium", "Type": "Bus Stop", "Hub_id": 9 }, "geometry": { "type": "Point", "coordinates": [ 110.3661519, -7.790835, 0.0 ] } },
{ "type": "Feature", "properties": { "Name": "Halte Mangkubumi 2", "Comm_400": 25.0, "Edu_400": 0.0, "Health_400": 0.0, "sum_400": 25, "Comm_800": 194.0, "Edu_800": 1.0, "Health_800": 0.0, "sum_800": 195, "Access_sco": 3.0, "Divers_sco": 2, "TOD_Score": 5, "TOD_Class": "Medium", "Type": "Bus Stop", "Hub_id": 10 }, "geometry": { "type": "Point", "coordinates": [ 110.3666015, -7.7876966, 0.0 ] } },
{ "type": "Feature", "properties": { "Name": "Trans Jogja Halte Taman Pintar", "Comm_400": 35.0, "Edu_400": 0.0, "Health_400": 0.0, "sum_400": 35, "Comm_800": 88.0, "Edu_800": 0.0, "Health_800": 0.0, "sum_800": 88, "Access_sco": 2.0, "Divers_sco": 1, "TOD_Score": 3, "TOD_Class": "Low", "Type": "Bus Stop", "Hub_id": 4 }, "geometry": { "type": "Point", "coordinates": [ 110.367048200000013, -7.8015606, 0.0 ] } },
{ "type": "Feature", "properties": { "Name": "Halte Sudirman 2 (Bumiputera)", "Comm_400": 31.0, "Edu_400": 0.0, "Health_400": 0.0, "sum_400": 31, "Comm_800": 119.0, "Edu_800": 2.0, "Health_800": 0.0, "sum_800": 121, "Access_sco": 3.0, "Divers_sco": 2, "TOD_Score": 5, "TOD_Class": "Medium", "Type": "Bus Stop", "Hub_id": 11 }, "geometry": { "type": "Point", "coordinates": [ 110.3695338, -7.7830772, 0.0 ] } },
{ "type": "Feature", "properties": { "Name": "Halte Mangkubumi 1", "Comm_400": 19.0, "Edu_400": 0.0, "Health_400": 0.0, "sum_400": 19, "Comm_800": 142.0, "Edu_800": 2.0, "Health_800": 0.0, "sum_800": 144, "Access_sco": 3.0, "Divers_sco": 2, "TOD_Score": 5, "TOD_Class": "Medium", "Type": "Bus Stop", "Hub_id": 12 }, "geometry": { "type": "Point", "coordinates": [ 110.3668978, -7.7847381, 0.0 ] } },
{ "type": "Feature", "properties": { "Name": "Halte Trans Jogja Jl.Ahmad Dahlan", "Comm_400": 13.0, "Edu_400": 0.0, "Health_400": 0.0, "sum_400": 13, "Comm_800": 78.0, "Edu_800": 1.0, "Health_800": 0.0, "sum_800": 79, "Access_sco": 3.0, "Divers_sco": 2, "TOD_Score": 5, "TOD_Class": "Medium", "Type": "Bus Stop", "Hub_id": 13 }, "geometry": { "type": "Point", "coordinates": [ 110.3601377, -7.8012996, 0.0 ] } },
{ "type": "Feature", "properties": { "Name": "A.M. Sangaji Timur", "Comm_400": 12.0, "Edu_400": 1.0, "Health_400": 0.0, "sum_400": 13, "Comm_800": 30.0, "Edu_800": 0.0, "Health_800": 0.0, "sum_800": 30, "Access_sco": 4.0, "Divers_sco": 2, "TOD_Score": 6, "TOD_Class": "Medium", "Type": "Bus Stop", "Hub_id": 14 }, "geometry": { "type": "Point", "coordinates": [ 110.3680078, -7.7757715, 0.0 ] } },
{ "type": "Feature", "properties": { "Name": "Malioboro 1", "Comm_400": 108.0, "Edu_400": 0.0, "Health_400": 0.0, "sum_400": 108, "Comm_800": 124.0, "Edu_800": 1.0, "Health_800": 0.0, "sum_800": 125, "Access_sco": 3.0, "Divers_sco": 2, "TOD_Score": 5, "TOD_Class": "Medium", "Type": "Bus Stop", "Hub_id": 15 }, "geometry": { "type": "Point", "coordinates": [ 110.36615, -7.79085, 0.0 ] } },
{ "type": "Feature", "properties": { "Name": "Malioboro 2", "Comm_400": 106.0, "Edu_400": 0.0, "Health_400": 0.0, "sum_400": 106, "Comm_800": 108.0, "Edu_800": 0.0, "Health_800": 0.0, "sum_800": 108, "Access_sco": 2.0, "Divers_sco": 1, "TOD_Score": 3, "TOD_Class": "Low", "Type": "Bus Stop", "Hub_id": 5 }, "geometry": { "type": "Point", "coordinates": [ 110.365577800000011, -7.7952204, 0.0 ] } },
{ "type": "Feature", "properties": { "Name": "Trans Jogja Terminal Giwangan", "Comm_400": 3.0, "Edu_400": 1.0, "Health_400": 0.0, "sum_400": 4, "Comm_800": 4.0, "Edu_800": 0.0, "Health_800": 0.0, "sum_800": 4, "Access_sco": 4.0, "Divers_sco": 2, "TOD_Score": 6, "TOD_Class": "Medium", "Type": "Bus Stop", "Hub_id": 16 }, "geometry": { "type": "Point", "coordinates": [ 110.3917757, -7.8340699, 0.0 ] } },
{ "type": "Feature", "properties": { "Name": "Halte Bus Transjogja - Museum Perjuangan", "Comm_400": 23.0, "Edu_400": 0.0, "Health_400": 0.0, "sum_400": 23, "Comm_800": 152.0, "Edu_800": 1.0, "Health_800": 0.0, "sum_800": 153, "Access_sco": 3.0, "Divers_sco": 2, "TOD_Score": 5, "TOD_Class": "Medium", "Type": "Bus Stop", "Hub_id": 17 }, "geometry": { "type": "Point", "coordinates": [ 110.371805, -7.815137, 0.0 ] } }
]
}
